,Name,County,State,Country,Stage,Latitude,Longitude,STATEFP
0,Nova Capital  ,Suffolk,Massachusetts,United States,Acquired,42.3602534,-71.0582912,25
1,Galena Corp  Harvard University - Harvard Business School,Santa Clara,California,United States,Acquired,37.4443293,-122.1598465,06
3,David Dodson - 1st Fund  Stanford University - Graduate School of Business,Santa Clara,California,United States,Acquired,37.4265407,-122.17029258409188,06
4,Balkin Corp  Stanford University,San Mateo,California,United States,Acquired,37.4863239,-122.232523,06
5,Braden Partners  ,Santa Clara,California,United States,Acquired,37.4443293,-122.1598465,06
6,Sverica International  ,San Francisco,California,United States,Acquired,37.7790262,-122.419906,06
10,Falcon Capital Corp. ,Santa Clara,California,United States,Acquired,37.4265407,-122.17029258409188,06
11,Mill River Corporation ,Santa Clara,California,United States,Acquired,37.4443293,-122.1598465,06
12,Gene Baker Search Fund  ,Santa Clara,California,United States,Acquired,37.4443293,-122.1598465,06
13,Sansair Corporation  ,Santa Clara,California,United States,Acquired,37.4443293,-122.1598465,06
15,The Nexus Group  ,Salt Lake,Utah,United States,Acquired,40.7596198,-111.8867975,49
16,Russell Poore  ,Salt Lake,Utah,United States,Acquired,40.7596198,-111.8867975,49
17,Presidio Partners  ,San Francisco,California,United States,Acquired,37.7790262,-122.419906,06
18,Jim Southern Search Fund 2  ,Tarrant,Texas,United States,Acquired,32.753177,-97.3327459,48
19,Ancora Capital ,San Mateo,California,United States,Acquired,37.496904,-122.3330573,06
20,Gulf Search Capital  ,Galveston,Texas,United States,Acquired,29.424473,-94.693869,48
21,Al Kapoor - Search Fund  ,Suffolk,Massachusetts,United States,Acquired,42.3602534,-71.0582912,25
22,Gregory Mazur  ,Suffolk,Massachusetts,United States,Acquired,42.3602534,-71.0582912,25
23,First American Records Management Company (FARM)  ,Santa Clara,California,United States,Acquired,37.4443293,-122.1598465,06
24,Circle Point Capital Corporation  ,San Mateo,California,United States,Inactive,37.4519671,-122.1779927,06
25,Tony Distefano Search Fund  ,Contra Costa,California,United States,Acquired,37.8771476,-122.1796888,06
26,Falck Holt  ,King,Washington,United States,Acquired,47.6038321,-122.3300624,53
27,Rockwood Equity  ,New York,New York,United States,Acquired,40.7127281,-74.0060152,36
28,Blackford Capital  Harvard University - Harvard Business School,Kent,Michigan,United States,Acquired,42.9632405,-85.6678639,26
29,Mike and Linda Katz ,Suffolk,Massachusetts,United States,Acquired,42.3602534,-71.0582912,25
30,Jim Southern Search Fund 3  ,Polk,Florida,United States,Acquired,27.7567667,-81.4639835,12
32,Pratap Mukherjee & Brian Haas Serach Fund  ,Santa Clara,California,United States,Acquired,37.4443293,-122.1598465,06
33,Michael Sanabria Search Fund  ,Sonoma,California,United States,Acquired,38.4404925,-122.7141049,06
34,SC Ventures  ,New York,New York,United States,Acquired,40.7127281,-74.0060152,36
35,Montebello Capital  ,Santa Clara,California,United States,Acquired,37.3228934,-122.0322895,06
36,Teton Industries  ,Snohomish,Washington,United States,Acquired,48.1810957,-122.1389548,53
38,"Crystal Springs Capital, LLC  ",San Mateo,California,United States,Acquired,37.6261715,-122.4332435,06
40,Julie Ha,Santa Clara,California,United States,Acquired,37.4443293,-122.1598465,06
41,Leader Creek Partners  ,Lane,Oregon,United States,Acquired,44.0505054,-123.0950506,41
42,Dionis Company  ,San Mateo,California,United States,Acquired,37.496904,-122.3330573,06
43,Eventide Management  Colgate University,New York,New York,United States,Acquired,40.7127281,-74.0060152,36
44,AP Capital Partners  ,Orange,Florida,United States,Acquired,28.5421109,-81.3790304,12
45,"Rabbit Creek Partners, LLC  ",Suffolk,Massachusetts,United States,Acquired,42.3602534,-71.0582912,25
46,Access CIG  ,Santa Clara,California,United States,Acquired,37.4443293,-122.1598465,06
47,"Liffey Thames Group, LLC  ",San Francisco,California,United States,Acquired,37.7790262,-122.419906,06
49,Argo Investors LLC  Princeton University,King,Washington,United States,Acquired,47.7598697,-122.2068288,53
50,Argo Management Partners  ,Lake,Illinois,United States,Acquired,42.371614,-88.125016,17
52,A.J. Wasserstein Search Fund  ,Hartford,Connecticut,United States,Acquired,41.6500201,-72.7342163,09
54,Jim Edmunds search fund  ,San Francisco,California,United States,Acquired,37.7790262,-122.419906,06
55,Wheelock Partners  ,Worcester,Massachusetts,United States,Acquired,42.5823564,-71.9831716,25
56,Headland Partners  ,San Francisco,California,United States,Acquired,37.7790262,-122.419906,06
57,"Willow Capital, LLC  ",Clackamas,Oregon,United States,Acquired,45.4206749,-122.6706498,41
58,Entrada Ventures LLC  ,Bernalillo,New Mexico,United States,Acquired,35.0841034,-106.650985,35
59,Stoddard Hill Capital  ,Hamilton,Ohio,United States,Acquired,39.1014537,-84.5124602,39
60,Footbridge Partners  ,Galveston,Texas,United States,Acquired,29.492893,-94.539616,48
62,VantageCap Partners  ,Dallas,Texas,United States,Acquired,32.7762719,-96.7968559,48
63,Mt. Auburn Partners  ,Suffolk,Massachusetts,United States,Acquired,42.3602534,-71.0582912,25
64,Council Oak Investors  ,Travis,Texas,United States,Acquired,30.2711286,-97.7436995,48
65,North Point Capital Partners  ,Hennepin,Minnesota,United States,Acquired,44.9863892,-93.5715908,27
67,Fairview Partners  ,Manitowoc,Wisconsin,United States,Acquired,44.0886059,-87.6575841,55
68,Scout Capital LLC ,Cook,Illinois,United States,Acquired,41.9380405,-87.6666557,17
69,Reticle Partners  ,Allegheny,Pennsylvania,United States,Acquired,40.4416941,-79.9900861,42
70,J. Devien Capital LLC  ,Fulton,Georgia,United States,Acquired,33.7489924,-84.3902644,13
71,Diligent Capital LLC  ,Lee,Florida,United States,Acquired,26.640628,-81.8723084,12
73,Travis Ayers' Search Fund  ,San Juan,Washington,United States,Acquired,48.5342662,-123.0171242,53
74,"Buck Creek Capital, LLC  ",King,Washington,United States,Acquired,47.6038321,-122.3300624,53
75,Blue Canyon Capital  ,Montgomery,Ohio,United States,Acquired,39.7589478,-84.1916069,39
76,Geminus Capital Partners  ,Philadelphia,Pennsylvania,United States,Acquired,39.9527237,-75.1635262,42
79,Johns Creek Partners  ,Gwinnett,Georgia,United States,Acquired,33.9412127,-84.2135309,13
81,Pinamar Investments  ,Denver,Colorado,United States,Acquired,39.7392364,-104.9848623,08
82,HWI Partners - Search Fund I,New Castle,Delaware,United States,Acquired,39.7459468,-75.546589,10
83,Gordian Capital ,New York,New York,United States,Acquired,40.7127281,-74.0060152,36
85,Sean Callahan Search Fund  ,San Francisco,California,United States,Acquired,37.7790262,-122.419906,06
86,Spec Limit Capital Partners  ,Lake,Illinois,United States,Acquired,42.371614,-88.125016,17
87,Pioneer Equity Partners  ,Mecklenburg,North Carolina,United States,Acquired,35.2272086,-80.8430827,37
88,Brown Robin Capital  ,San Francisco,California,United States,Acquired,37.7790262,-122.419906,06
89,Rational Equity  ,Ramsey,Minnesota,United States,Acquired,44.9500208,-93.0949764,27
90,Halibut Flats Partners  ,King,Washington,United States,Acquired,47.6038321,-122.3300624,53
91,Carrboro Capital  ,Orange,North Carolina,United States,Acquired,35.9131542,-79.05578,37
92,South Florida Media Group  ,Palm Beach,Florida,United States,Acquired,26.3586885,-80.0830984,12
93,"American Franchise Company, LLC  ",Mecklenburg,North Carolina,United States,Acquired,35.2272086,-80.8430827,37
94,Trumpet Ventures  ,Santa Clara,California,United States,Acquired,37.3893889,-122.0832101,06
95,Caldera Capital Partners  ,Lake,Illinois,United States,Acquired,42.371614,-88.125016,17
96,Lincoln Peak Capital  ,Suffolk,Massachusetts,United States,Acquired,42.3602534,-71.0582912,25
97,Ninth Street Capital Partners  ,Cuyahoga,Ohio,United States,Acquired,41.464498,-81.508732,39
98,Bluebird Investment Company  ,San Francisco,California,United States,Acquired,37.7790262,-122.419906,06
99,Accelon Capital  ,San Francisco,California,United States,Acquired,37.7790262,-122.419906,06
100,Summit Line Capital LLC  ,Lake,Illinois,United States,Acquired,42.371614,-88.125016,17
101,Lila Capital Partners  ,Marin,California,United States,Acquired,37.8590272,-122.485469,06
103,Finrock Growth Partners  ,Travis,Texas,United States,Acquired,30.2711286,-97.7436995,48
104,Wright Equity Partners  ,Fulton,Georgia,United States,Acquired,33.7489924,-84.3902644,13
105,HeelHorn Partners  ,Mecklenburg,North Carolina,United States,Acquired,35.2272086,-80.8430827,37
107,Mainsail Partners - EIR Zac Carman  ,San Francisco,California,United States,Acquired,37.7790262,-122.419906,06
108,Bartley Capital  ,Suffolk,Massachusetts,United States,Acquired,42.3602534,-71.0582912,25
110,Sentinel Peak Capital  ,San Francisco,California,United States,Acquired,37.7790262,-122.419906,06
112,Capstone Equity Partners  ,Mecklenburg,North Carolina,United States,Acquired,35.2272086,-80.8430827,37
113,Bosworth Capital Partners  ,Lake,Illinois,United States,Acquired,42.371614,-88.125016,17
114,"Longleaf Capital Partners, LLC  ",Charleston,South Carolina,United States,Acquired,32.7876012,-79.9402728,45
115,Paulus Capital (Captive Search Fund for Quantum Energy Partners)  ,Fulton,Georgia,United States,Acquired,33.7489924,-84.3902644,13
116,Nashton Partners  ,Suffolk,Massachusetts,United States,Acquired,42.3602534,-71.0582912,25
117,Prospect Hill Ventures  ,Suffolk,Massachusetts,United States,Acquired,42.34921265,-71.05003057492968,25
118,Sequential Capital Partners LLC  ,Morris,New Jersey,United States,Acquired,40.7970382,-74.4809868,34
119,Adirondack Growth Capital  ,Hennepin,Minnesota,United States,Acquired,44.9772995,-93.2654692,27
122,Cetina Capital  ,San Francisco,California,United States,Acquired,37.7790262,-122.419906,06
125,Channelstone Capital Partners  ,Philadelphia,Pennsylvania,United States,Acquired,39.9527237,-75.1635262,42
127,Inman Square Capital  ,Middlesex,Massachusetts,United States,Acquired,42.3750997,-71.1056157,25
128,Duane Street Capital  ,New York,New York,United States,Acquired,40.7127281,-74.0060152,36
129,Family Equity Partners  ,New York,New York,United States,Acquired,40.7127281,-74.0060152,36
130,Fellowship Capital Partners  ,Lake,Illinois,United States,Acquired,42.371614,-88.125016,17
131,Long Lake Partners  ,Oakland,Michigan,United States,Acquired,42.6055893,-83.1499304,26
132,Wide River Partners  ,Suffolk,Massachusetts,United States,Acquired,42.3602534,-71.0582912,25
133,Lia Capital Partners  ,Miller,Missouri,United States,Acquired,38.1798796,-92.6226454,29
134,Ingenium Partners  ,Atlantic,New Jersey,United States,Acquired,39.3642852,-74.4229351,34
135,Rushmore Partners  ,San Francisco,California,United States,Acquired,37.7790262,-122.419906,06
136,Yukon Capital  ,Orange,California,United States,Acquired,33.6170092,-117.9294401,06
138,Charlotte Street Partners  ,Hartford,Connecticut,United States,Acquired,41.7823216,-72.6120346,09
139,Gum Branch Capital  ,San Francisco,California,United States,Acquired,37.7790262,-122.419906,06
140,Open Water Capital  ,San Mateo,California,United States,Acquired,37.496904,-122.3330573,06
141,Accretia Capital  ,San Francisco,California,United States,Acquired,37.7790262,-122.419906,06
142,Globe Equity Partners  ,San Francisco,California,United States,Acquired,37.7790262,-122.419906,06
143,Liberty Place Capital  ,Philadelphia,Pennsylvania,United States,Acquired,39.9527237,-75.1635262,42
144,"Acuity Capital Partners, LLC  ",Cook,Illinois,United States,Acquired,41.8755616,-87.6244212,17
145,Frisco Capital ,Santa Clara,California,United States,Acquired,37.4443293,-122.1598465,06
147,Rosemore Capital  ,Allegheny,Pennsylvania,United States,Acquired,40.4416941,-79.9900861,42
148,"Arosa, LLC  ",Durham,North Carolina,United States,Acquired,35.996653,-78.9018053,37
150,Madison Equity Associates  ,Lake,Illinois,United States,Acquired,42.371614,-88.125016,17
151,Knob Hill Partners  ,Suffolk,Massachusetts,United States,Acquired,42.3602534,-71.0582912,25
152,Fig Tree Partners  ,San Francisco,California,United States,Acquired,37.7790262,-122.419906,06
153,"Servan & Co, LLC  ",Suffolk,Massachusetts,United States,Acquired,42.3602534,-71.0582912,25
154,Triple Creek Capital  ,Boulder,Colorado,United States,Acquired,40.1672117,-105.1019287,08
155,Longship Partners  ,Dallas,Texas,United States,Acquired,32.7762719,-96.7968559,48
156,SHR Capital Partners  ,New York,New York,United States,Acquired,40.7127281,-74.0060152,36
157,Ender Ventures  ,San Francisco,California,United States,Acquired,37.7790262,-122.419906,06
158,Solquest Management LLC  ,Williamson,Tennessee,United States,Acquired,36.0325687,-86.7825235,47
161,BackCountry Capital  ,Denver,Colorado,United States,Acquired,39.7392364,-104.9848623,08
162,Rall Search Fund  ,San Diego,California,United States,Acquired,32.7174202,-117.1627728,06
164,GrowthFire  ,Hennepin,Minnesota,United States,Acquired,44.9772995,-93.2654692,27
165,Golden Spike Capital  ,Jackson,Missouri,United States,Acquired,39.100105,-94.5781416,29
166,Succession Leadership Capital  ,Berks,Pennsylvania,United States,Acquired,40.335345,-75.9279495,42
167,Ascent Equity Group  ,Harris,Texas,United States,Acquired,29.7589382,-95.3676974,48
168,Be Tru LLC  ,Oakland,Michigan,United States,Acquired,42.4894801,-83.1446485,26
171,"Fore River Ventures, LLC  ",Suffolk,Massachusetts,United States,Acquired,42.3602534,-71.0582912,25
172,Footbridge Partners  ,New York,New York,United States,Acquired,40.7127281,-74.0060152,36
177,Mammoth Equity Partners  ,San Francisco,California,United States,Acquired,37.7790262,-122.419906,06
178,"Attis Capital Partners, LLC  ",Orange,California,United States,Acquired,33.6170092,-117.9294401,06
180,Blue Springs Capital Partners  ,Orange,Florida,United States,Acquired,28.5421109,-81.3790304,12
181,MPG Equity Partners LLC  ,Lake,Illinois,United States,Acquired,42.371614,-88.125016,17
182,Perigee Capital Partners  ,Williamson,Texas,United States,Acquired,30.508235,-97.6788934,48
183,"Red Iron Partners, LLC  ",Mecklenburg,North Carolina,United States,Acquired,35.2272086,-80.8430827,37
184,Garnett Station Partners  ,New York,New York,United States,Acquired,40.7127281,-74.0060152,36
185,Seneca Creek Partners  ,Fulton,Georgia,United States,Acquired,33.7489924,-84.3902644,13
186,Ironclad Capital  ,Jefferson,Kentucky,United States,Acquired,38.2542376,-85.759407,21
188,Long Trail Leadership  ,Monmouth,New Jersey,United States,Acquired,40.2852895,-74.333495,34
189,Graycourt Capital  ,Dallas,Texas,United States,Acquired,32.7762719,-96.7968559,48
190,Base Equity Partners  ,New York,New York,United States,Acquired,40.7127281,-74.0060152,36
191,Light Beam Capital  ,New York,New York,United States,Acquired,40.7127281,-74.0060152,36
192,Wolf Point Growth Partners  ,Lake,Illinois,United States,Acquired,42.371614,-88.125016,17
193,RoseRock Partners  ,Dallas,Texas,United States,Acquired,32.7762719,-96.7968559,48
194,Sunsphere Capital  ,Fulton,Georgia,United States,Acquired,33.7489924,-84.3902644,13
195,January Partners  ,Mecklenburg,North Carolina,United States,Acquired,35.2272086,-80.8430827,37
196,Rift Valley Equity Partners  ,New York,New York,United States,Acquired,40.7127281,-74.0060152,36
197,Valde Capital Investment Co  ,Philadelphia,Pennsylvania,United States,Acquired,39.9527237,-75.1635262,42
199,Eagle Ridge Growth Partners  ,St. Tammany Parish,Louisiana,United States,Acquired,30.3582305,-90.0657477,22
201,Phoenix Strategy  ,Suffolk,Massachusetts,United States,Acquired,42.3602534,-71.0582912,25
202,Peterson Partners - Search Principal Travis Everton  ,Salt Lake,Utah,United States,Acquired,40.7596198,-111.8867975,49
203,Uncharted Capital  ,Douglas,Nebraska,United States,Acquired,41.2587459,-95.9383758,31
206,Hollivine Partners  ,Summit,Utah,United States,Inactive,40.6460635,-111.4979741,49
211,Infinitas Ventures  ,King,Washington,United States,Acquired,47.6144219,-122.192337,53
213,Davis Square Group  Indiana University at Bloomington,Suffolk,Massachusetts,United States,Acquired,42.3602534,-71.0582912,25
214,"Alaska Search Partners, LLC  ",Unorganized Borough,Alaska,United States,Acquired,64.4459613,-149.680909,02
216,Oakhill Equity  ,Allegheny,Pennsylvania,United States,Inactive,40.4416941,-79.9900861,42
217,TXE Capital  Texas A&M University,Harris,Texas,United States,Acquired,29.7589382,-95.3676974,48
218,East Range Partners  ,Suffolk,Massachusetts,United States,Acquired,42.3602534,-71.0582912,25
220,Lighthouse Equity Partners (Atlanta)  ,Fulton,Georgia,United States,Acquired,33.7489924,-84.3902644,13
221,Roland Equity Partners  ,Utah,Utah,United States,Acquired,40.3768954,-111.7957645,49
222,Annison Capital Partners  ,Lake,Illinois,United States,Acquired,42.371614,-88.125016,17
223,Poplar Partners  ,New York,New York,United States,Acquired,40.7127281,-74.0060152,36
226,"Garland Search Capital, LLC  ",Mecklenburg,North Carolina,United States,Acquired,35.2272086,-80.8430827,37
227,GreenStreet Growth Management  ,King,Washington,United States,Acquired,47.6038321,-122.3300624,53
228,Cedar Lake Partners  ,Delaware,Pennsylvania,United States,Acquired,40.0440149,-75.3878616,42
230,"Featherstone Partners, LLC  ",Salt Lake,Utah,United States,Acquired,40.7596198,-111.8867975,49
231,Leadership Choice Capital  Rose-Hulman Institute of Technology,Multnomah,Oregon,United States,Acquired,45.5202471,-122.6741949,41
232,Tamroc Partners  ,Suffolk,Massachusetts,United States,Acquired,42.3602534,-71.0582912,25
233,The Friend Group  ,Rutland,Vermont,United States,Acquired,43.645893,-72.774825,50
234,Green Vault Partners  ,Suffolk,Massachusetts,United States,Acquired,42.3602534,-71.0582912,25
235,Chenmark Capital Management  Bowdoin College,Cumberland,Maine,United States,Acquired,43.6610277,-70.2548596,23
236,Legacy Investments  ,Chaffee,Colorado,United States,Acquired,38.5347193,-105.9989023,08
237,New Forest Capital  ,Suffolk,Massachusetts,United States,Acquired,42.3602534,-71.0582912,25
238,AltEquity  ,New York,New York,United States,Acquired,40.7127281,-74.0060152,36
240,Montserrat Capital  ,New York,New York,United States,Acquired,40.7127281,-74.0060152,36
241,Elm Grove Partners  ,New Haven,Connecticut,United States,Acquired,41.2795414,-72.8150989,09
243,Elm Equity Partners  ,New York,New York,United States,Acquired,40.7127281,-74.0060152,36
244,"Cloud X Partners, LLC  ",New York,New York,United States,Acquired,40.7127281,-74.0060152,36
248,Everglade Management Partners  ,Miami-Dade,Florida,United States,Acquired,25.7741728,-80.19362,12
249,Joseph Thomas Search Fund  ,Lake,Michigan,United States,Acquired,43.878887,-85.801504,26
250,Novidam Partners  ,New York,New York,United States,Acquired,40.7127281,-74.0060152,36
253,Brook Park Holdings LLC (BPH) ,Cook,Illinois,United States,Acquired,41.8755616,-87.6244212,17
257,Rivet Capital Partners  ,Chittenden,Vermont,United States,Acquired,44.4761601,-73.212906,50
258,Riomar Capital  ,Mecklenburg,North Carolina,United States,Acquired,35.2272086,-80.8430827,37
259,New Concord Capital  ,Greene,New York,United States,Acquired,42.384013,-73.834805,36
260,"Commodore Capital Partners, LLC  ",Fulton,Georgia,United States,Acquired,33.7489924,-84.3902644,13
262,Everworth  ,Montgomery,Texas,United States,Acquired,30.1734194,-95.504686,48
263,Expedition Capital Partners  ,Cook,Illinois,United States,Acquired,41.8964706,-87.6357194,17
264,N-Squared Growth Capital  ,New York,New York,United States,Acquired,40.7127281,-74.0060152,36
265,La Salle Hill  ,Suffolk,Massachusetts,United States,Acquired,42.3602534,-71.0582912,25
266,Arbela Partners  ,Dallas,Texas,United States,Acquired,32.7762719,-96.7968559,48
267,One Praetorian  ,Lake,Illinois,United States,Acquired,42.371614,-88.125016,17
269,Prometheus Health Partners  ,New York,New York,United States,Acquired,40.7127281,-74.0060152,36
270,Ascension Point Capital  ,New York,New York,United States,Acquired,40.7127281,-74.0060152,36
271,The Valent Capital Partners  ,Lake,Illinois,United States,Acquired,42.371614,-88.125016,17
272,MLD Capital  ,Travis,Texas,United States,Acquired,30.2711286,-97.7436995,48
273,Fenton Avenue Capital  ,New York,New York,United States,Acquired,40.7127281,-74.0060152,36
275,Galaxi Group  ,San Francisco,California,United States,Acquired,37.7790262,-122.419906,06
276,Anchor Light Parnters  ,Lake,Illinois,United States,Acquired,42.371614,-88.125016,17
277,Kerwood Capital Partners  ,San Diego,California,United States,Acquired,32.7174202,-117.1627728,06
278,Lyndhurst Capital  ,Marshall,Iowa,United States,Acquired,42.0442545,-92.9123388,19
279,Cornerstone Continuity Partners  ,Fulton,Georgia,United States,Acquired,33.7489924,-84.3902644,13
280,Four Pillars  ,Jackson,Missouri,United States,Acquired,39.100105,-94.5781416,29
281,Horizon View Capital  ,Utah,Utah,United States,Acquired,40.4190328,-111.7921626,49
283,Gemini Investors - EIR David Kemp  ,Suffolk,Massachusetts,United States,Acquired,42.3602534,-71.0582912,25
284,"McCombie Group, LLC  ",Miami-Dade,Florida,United States,Acquired,25.7741728,-80.19362,12
285,Piyush Pandey search fund  ,Alameda,California,United States,Acquired,37.5482697,-121.988571,06
286,Heritage Holding  ,Suffolk,Massachusetts,United States,Acquired,42.3602534,-71.0582912,25
289,Greenwich Point Capital  ,New York,New York,United States,Acquired,40.7127281,-74.0060152,36
291,Roman Road Ventures  ,Travis,Texas,United States,Acquired,30.2711286,-97.7436995,48
292,Discover Capital  ,Jefferson,Colorado,United States,Acquired,39.8005505,-105.0811573,08
293,Lia Majid search fund  ,Lake,Illinois,United States,Acquired,42.371614,-88.125016,17
294,Ashlar Capital  ,Santa Clara,California,United States,Acquired,37.4443293,-122.1598465,06
296,Maximus Capital Partners  ,McLean,Illinois,United States,Acquired,40.4631789,-88.8196613,17
297,"Mariner Street, LLC  ",Erie,New York,United States,Acquired,42.8867166,-78.8783922,36
299,"Graham Street Capital, LLC  ",King,Washington,United States,Acquired,47.6038321,-122.3300624,53
300,"Featherstone Holdings, LLC  ",Salt Lake,Utah,United States,Acquired,40.7596198,-111.8867975,49
301,Cub Investments  ,San Francisco,California,United States,Acquired,37.7790262,-122.419906,06
302,Granite Capital  Northwestern University - Kellogg School of Management,Suffolk,Massachusetts,United States,Acquired,42.3602534,-71.0582912,25
304,Barah Capital Partners  ,San Diego,California,United States,Acquired,32.7174202,-117.1627728,06
305,"Exultant Capital, LCC  ",Summit,Ohio,United States,Acquired,41.240056,-81.440667,39
308,Cascadian Capital  ,Douglas,Nevada,United States,Acquired,39.00134,-119.9278173030086,32
309,Stavanger Capital  ,Harris,Texas,United States,Acquired,29.7589382,-95.3676974,48
310,Seven Springs Partners  ,New York,New York,United States,Acquired,40.7127281,-74.0060152,36
311,Pacific Oak  Harvard University - Harvard Business School,San Francisco,California,United States,Acquired,37.7790262,-122.419906,06
312,Lincoln Hill Holdings  ,Lake,Illinois,United States,Acquired,42.371614,-88.125016,17
313,Finchbrook Partners LLC  ,Skagit,Washington,United States,Acquired,48.4200462,-122.32642,53
314,AltaLink Capital  ,Utah,Utah,United States,Acquired,40.2338438,-111.6585337,49
315,Glass Lake Capital ,Lake,Illinois,United States,Acquired,42.371614,-88.125016,17
316,East Crawford LLC  ,Hennepin,Minnesota,United States,Acquired,44.9772995,-93.2654692,27
318,Albaron Growth Partners  ,New York,New York,United States,Acquired,40.7127281,-74.0060152,36
319,Silver Field Capital  ,Lake,Illinois,United States,Acquired,42.371614,-88.125016,17
320,NextGen Growth Partners - EIR Gabe Barkley  ,Lake,Illinois,United States,Acquired,42.371614,-88.125016,17
321,Rich Sea  ,Lake,Illinois,United States,Acquired,42.371614,-88.125016,17
322,Thesis Capital  ,Harris,Texas,United States,Acquired,29.7589382,-95.3676974,48
323,Aquacopia Management LLC//Aquacopia Venture Partners LLC  ,New York,New York,United States,Acquired,40.7127281,-74.0060152,36
324,LogCap Partners  ,Travis,Texas,United States,Acquired,30.2711286,-97.7436995,48
325,Cork Capital  ,Lake,Illinois,United States,Acquired,42.371614,-88.125016,17
326,Ultima Capital Partners  ,Suffolk,Massachusetts,United States,Acquired,42.3602534,-71.0582912,25
329,One Line Partners  ,New York,New York,United States,Acquired,40.7127281,-74.0060152,36
332,Rogue Mountain LLC  ,Denver,Colorado,United States,Acquired,39.7392364,-104.9848623,08
333,Scout View Partners  ,Cuyahoga,Ohio,United States,Acquired,41.5051613,-81.6934446,39
334,North Brookside Capital  ,New York,New York,United States,Acquired,40.7127281,-74.0060152,36
337,Oak Cliff Capital  ,Cuyahoga,Ohio,United States,Acquired,41.5051613,-81.6934446,39
338,Bow Street Capital  ,Maricopa,Arizona,United States,Acquired,33.5428006,-111.9556001,04
340,Grant Peak Capital (formerly Hemlock Partners)  ,King,Washington,United States,Acquired,47.6038321,-122.3300624,53
343,Banyan Software  ,Suffolk,Massachusetts,United States,Acquired,42.3602534,-71.0582912,25
344,Olympic Holdings  ,King,Washington,United States,Acquired,47.6038321,-122.3300624,53
345,Trek Partners  ,Franklin,Washington,United States,Acquired,46.24420675,-119.10181999130866,53
346,Pine Ridge Holdings  ,San Mateo,California,United States,Acquired,37.6535403,-122.4168664,06
349,Kenston Green  ,Suffolk,Massachusetts,United States,Acquired,42.3602534,-71.0582912,25
350,Alta Huron Capital  ,New York,New York,United States,Acquired,40.7127281,-74.0060152,36
351,Vallatus  ,Suffolk,Massachusetts,United States,Acquired,42.3602534,-71.0582912,25
353,Granite Lake Partners  ,Suffolk,Massachusetts,United States,Inactive,42.3602534,-71.0582912,25
357,Ventus Health Investors  ,Suffolk,Massachusetts,United States,Acquired,42.3602534,-71.0582912,25
358,Elk Capital Partners  ,Lake,Illinois,United States,Acquired,42.371614,-88.125016,17
359,Luby Bay Capital Partners  ,King,Washington,United States,Acquired,47.6038321,-122.3300624,53
360,Tobacco Road Partners  ,Durham,North Carolina,United States,Acquired,35.996653,-78.9018053,37
362,Tartan Equity Group  ,Hennepin,Minnesota,United States,Acquired,44.9772995,-93.2654692,27
363,Denali Capital Partners  ,San Francisco,California,United States,Acquired,37.7790262,-122.419906,06
364,RidgeCrest Company  ,Wake,North Carolina,United States,Acquired,35.7803977,-78.6390989,37
366,Alta Sierra  ,Clark,Washington,United States,Acquired,45.6306954,-122.6744557,53
367,Cypress Street Capital  ,Travis,Texas,United States,Acquired,30.2711286,-97.7436995,48
369,Burton Hill Capital  ,Dallas,Texas,United States,Acquired,32.7762719,-96.7968559,48
370,Greyfeather Capital  ,Cook,Illinois,United States,Acquired,41.9380405,-87.6666557,17
371,Bluegrass Equity  ,Fayette,Kentucky,United States,Acquired,38.0464066,-84.4970393,21
372,Lassen Venture Partners  ,San Francisco,California,United States,Acquired,37.7790262,-122.419906,06
374,Premo Ventures  ,Greenville,South Carolina,United States,Acquired,34.851354,-82.3984882,45
376,Chaparral Capital  ,Maricopa,Arizona,United States,Acquired,33.4484367,-112.0741417,04
378,Monroe Hill Growth Partners  ,Orange,North Carolina,United States,Acquired,35.9131542,-79.05578,37
379,Crescent Peak  ,Suffolk,Massachusetts,United States,Acquired,42.3602534,-71.0582912,25
380,Emko Capital  ,Mecklenburg,North Carolina,United States,Acquired,35.2272086,-80.8430827,37
381,Seabright Fund  ,Yolo,California,United States,Acquired,38.545379,-121.7445835,06
382,Go Capital  ,Lake,Illinois,United States,Acquired,42.371614,-88.125016,17
384,StreetLight Capital Group  ,New York,New York,United States,Acquired,40.7127281,-74.0060152,36
385,Claremont Square Capital  ,Dallas,Texas,United States,Acquired,32.7762719,-96.7968559,48
387,Brian Sampson  ,Jefferson,Kentucky,United States,Acquired,38.2542376,-85.759407,21
388,Generational Transfer Entrepreneurs - Tom Fernan  ,Allegheny,Pennsylvania,United States,Acquired,40.4416941,-79.9900861,42
389,Rush Mount Ventures  ,San Diego,California,United States,Acquired,32.7174202,-117.1627728,06
390,Software Growth Partners  ,San Mateo,California,United States,Acquired,37.504936,-122.2618236,06
392,DMR Acquisitions  ,Hartford,Connecticut,United States,Acquired,41.6500201,-72.7342163,09
393,"Huliau Capital, LLC  ",Honolulu,Hawaii,United States,Acquired,21.304547,-157.855676,15
394,Duma Capital LLC  ,Charleston,South Carolina,United States,Acquired,32.7876012,-79.9402728,45
395,Charlson Capital Partners  ,Salt Lake,Utah,United States,Acquired,40.7596198,-111.8867975,49
396,North River Partners  ,Suffolk,Massachusetts,United States,Acquired,42.3602534,-71.0582912,25
397,"Bancroft Holding, LLC  ",Middlesex,Massachusetts,United States,Acquired,42.3709299,-71.1828321,25
398,Floyd Capital Partners  ,Suffolk,Massachusetts,United States,Acquired,42.3602534,-71.0582912,25
399,Arden Bay  ,Suffolk,Massachusetts,United States,Acquired,42.3602534,-71.0582912,25
401,Generational Transfer Entrepreneurs - Brenden Van Buren  ,Allegheny,Pennsylvania,United States,Acquired,40.4416941,-79.9900861,42
403,Centennial Investment Partners  ,Cook,Illinois,United States,Acquired,41.9380405,-87.6666557,17
404,Hunter Trust  ,Hennepin,Minnesota,United States,Acquired,44.9772995,-93.2654692,27
406,12 South Capital Partners  ,Mecklenburg,North Carolina,United States,Acquired,35.2272086,-80.8430827,37
407,Calyx Capital Partners  ,Lake,Illinois,United States,Acquired,42.371614,-88.125016,17
408,ZoomUp (Griffin Brothers Companies)  ,Mecklenburg,North Carolina,United States,Acquired,35.481705,-80.8590006,37
409,Ostium Partners  ,Wake,North Carolina,United States,Acquired,35.7803977,-78.6390989,37
410,Starting Gate Partners  ,Wake,North Carolina,United States,Acquired,35.7803977,-78.6390989,37
411,NextGen Growth Partners - EIR Dave Newberry  ,Lake,Illinois,United States,Acquired,42.371614,-88.125016,17
412,Cognitus Capital Partners LLC  ,Palm Beach,Florida,United States,Acquired,26.3586885,-80.0830984,12
413,Cambium Equity Partners  ,Dallas,Texas,United States,Acquired,32.7762719,-96.7968559,48
415,Dacha Prime  ,San Francisco,California,United States,Acquired,37.7790262,-122.419906,06
416,Endurance Square  ,Dallas,Texas,United States,Acquired,32.7762719,-96.7968559,48
417,Tenaz Capital Co.  ,Philadelphia,Pennsylvania,United States,Acquired,39.9527237,-75.1635262,42
418,Search Fund West  ,San Francisco,California,United States,Acquired,37.7790262,-122.419906,06
420,East River Investments  ,Harris,Texas,United States,Acquired,29.7589382,-95.3676974,48
422,Sunlight Capital Group  ,San Francisco,California,United States,Acquired,37.7790262,-122.419906,06
423,Eagle Tower Capital  ,Cook,Illinois,United States,Acquired,41.88587254258841,-87.64875808515846,17
425,Bear Capital LLC  ,Travis,Texas,United States,Acquired,30.2711286,-97.7436995,48
427,SECOND WAVE CAPITAL MANAGEMENT  ,Orange,California,United States,Acquired,33.7423967,-118.1055926,06
428,"Saltspring Capital, LLC  ",Lake,Illinois,United States,Acquired,42.371614,-88.125016,17
429,Charis Consumer Partners  ,Denver,Colorado,United States,Acquired,39.7392364,-104.9848623,08
430,KATA Capital Partners  ,New York,New York,United States,Acquired,40.7127281,-74.0060152,36
431,Treaty Oak Equity LLC  ,Travis,Texas,United States,Acquired,30.2711286,-97.7436995,48
433,Holland Course Capital  ,Dallas,Texas,United States,Acquired,32.7762719,-96.7968559,48
434,Goodwin Point  ,Cumberland,Maine,United States,Acquired,43.6610277,-70.2548596,23
436,Klaxon ,Suffolk,Massachusetts,United States,Acquired,42.3602534,-71.0582912,25
438,Centennial Investment Partners  ,Cook,Illinois,United States,Acquired,41.9380405,-87.6666557,17
439,Brick Street Partners  ,Lake,Illinois,United States,Acquired,42.371614,-88.125016,17
441,Independence Capital Asset Partners  ,Denver,Colorado,United States,Acquired,39.7392364,-104.9848623,08
442,Exit Plan Capital  ,Philadelphia,Pennsylvania,United States,Acquired,39.9527237,-75.1635262,42
443,Dunmore Capital Partners  ,Lake,Illinois,United States,Acquired,42.371614,-88.125016,17
446,Rowman Candle Partners  ,Hamilton,Ohio,United States,Acquired,39.1014537,-84.5124602,39
447,"Southeast Business Partners, LLC  ",Mecklenburg,North Carolina,United States,Acquired,35.2272086,-80.8430827,37
448,New Orchard Capital  ,Lake,Illinois,United States,Acquired,42.371614,-88.125016,17
452,Harpeth Equity  ,Williamson,Tennessee,United States,Acquired,35.925206,-86.8689419,47
453,West Sands Partners  ,Dallas,Texas,United States,Acquired,32.7762719,-96.7968559,48
454,Gypsum Ridge Capital  ,Lake,Illinois,United States,Acquired,42.371614,-88.125016,17
461,Elmwood Capital  ,Douglas,Nebraska,United States,Acquired,41.2587459,-95.9383758,31
462,Blue Range Capital LLC  ,Suffolk,Massachusetts,United States,Acquired,42.3602534,-71.0582912,25
463,Four Wire Investments  ,Collin,Texas,United States,Acquired,33.1031744,-96.6705503,48
464,Broadtree Partners - Zen Pramod Menon  ,Mecklenburg,North Carolina,United States,Acquired,35.2272086,-80.8430827,37
465,Clipper Capital Partners  ,Davidson,Tennessee,United States,Acquired,36.2206081,-86.69563733154433,47
466,NextGen Growth Partners - EIR Rock Irvin  ,Lake,Illinois,United States,Acquired,42.371614,-88.125016,17
468,Pivoton Capital  ,Westchester,New York,United States,Acquired,40.9278769,-73.7517983,36
469,Springline Partners  ,Denver,Colorado,United States,Acquired,39.7392364,-104.9848623,08
470,"Huron Holding, LLC  ",Cook,Illinois,United States,Acquired,41.9380405,-87.6666557,17
471,Spider Investments LLC  ,Dallas,Texas,United States,Acquired,32.7762719,-96.7968559,48
474,Stables Partners  ,Orange,California,United States,Acquired,33.7500378,-117.8704931,06
475,Trailview Partners  ,Cook,Illinois,United States,Acquired,41.8755616,-87.6244212,17
476,Broadtree Partners - Rob Joyce  ,Travis,Texas,United States,Acquired,30.2711286,-97.7436995,48
477,NextGen Succession Partners  ,Harris,Texas,United States,Acquired,29.7589382,-95.3676974,48
478,Arbor Capital  ,Orange,Florida,United States,Acquired,28.5421109,-81.3790304,12
484,Carl Dixon Search Fund  ,Salt Lake,Utah,United States,Acquired,40.7596198,-111.8867975,49
485,Fiduciam Capital  ,Fulton,Georgia,United States,Acquired,33.7489924,-84.3902644,13
486,Leland Bay  ,Suffolk,Massachusetts,United States,Acquired,42.3602534,-71.0582912,25
487,Delvern Capital  ,Mecklenburg,North Carolina,United States,Acquired,35.2272086,-80.8430827,37
488,Golden Elm LLC  ,DuPage,Illinois,United States,Acquired,41.89924935,-87.94300418922636,17
489,Pursuant Capital  ,Hillsborough,Florida,United States,Acquired,27.9477595,-82.458444,12
490,Thomas Point Capital LLC  ,Arlington,Virginia,United States,Acquired,38.8804713,-77.0862464,51
491,"Noonmark Capital, LLC  ",New York,New York,United States,Acquired,40.7127281,-74.0060152,36
492,Prevoyant Capital  ,Maricopa,Arizona,United States,Acquired,33.4942189,-111.9260184,04
493,Big Canyon Capital  ,Tulare,California,United States,Acquired,36.7014631,-118.755997,06
495,Akazia Capital Partners  ,San Diego,California,United States,Acquired,32.7174202,-117.1627728,06
496,Sandpiper Equity  ,Fairfield,Connecticut,United States,Acquired,41.022875,-73.564846,09
497,"SKP Holdings, LLC  ",New York,New York,United States,Acquired,40.7127281,-74.0060152,36
498,NextGen Growth Partners - EIR Austin Ashmore  ,Cook,Illinois,United States,Acquired,41.9380405,-87.6666557,17
499,Pegasus Industries  ,Harris,Texas,United States,Acquired,29.7589382,-95.3676974,48
500,Blacktail Capital  ,King,Washington,United States,Acquired,47.668389,-122.377373,53
501,Sandy Point Equity  ,Washtenaw,Michigan,United States,Acquired,42.2681569,-83.7312291,26
503,Conant Capital  ,Suffolk,Massachusetts,United States,Acquired,42.3602534,-71.0582912,25
504,Thoroughbred Capital  ,Jefferson,Alabama,United States,Acquired,33.5206824,-86.8024326,01
505,Wirth Capital  ,Hennepin,Minnesota,United States,Acquired,44.9772995,-93.2654692,27
506,"Ardlock, LLC  ",Middlesex,Massachusetts,United States,Acquired,42.3750997,-71.1056157,25
507,Billingsgate Ventures  ,Suffolk,Massachusetts,United States,Acquired,42.3602534,-71.0582912,25
508,Crescent Lake LLC  ,Nueces,Texas,United States,Acquired,27.7477253,-97.4014129,48
510,Ben Bortner Unnamed Self-Funded Search  ,Denver,Colorado,United States,Acquired,39.7392364,-104.9848623,08
512,Linc Partners  ,Mecklenburg,North Carolina,United States,Acquired,35.2272086,-80.8430827,37
513,Nexu Partners  ,Dallas,Texas,United States,Acquired,32.7762719,-96.7968559,48
514,Generational Transfer Entrepreneurs - Gabriel Chick  ,Allegheny,Pennsylvania,United States,Acquired,40.4416941,-79.9900861,42
515,Wheaton Capital - NextGen Growth Partners - EIR Drew Daum  ,DuPage,Illinois,United States,Acquired,41.8646959,-88.1101709,17
516,"Oakbourne, LLC  ",Suffolk,Massachusetts,United States,Acquired,42.3602534,-71.0582912,25
517,Holbrooks Manufacturing  ,Davidson,North Carolina,United States,Acquired,35.8240265,-80.2533838,37
519,Live Spring Capital  ,Tarrant,Texas,United States,Acquired,32.753177,-97.3327459,48
521,Patient Equity Partners  ,Cook,Illinois,United States,Acquired,41.9380405,-87.6666557,17
522,Broadtree Partners  ,Mecklenburg,North Carolina,United States,Acquired,35.2272086,-80.8430827,37
523,Broadtree - Paige Sopcic  ,Chatham,Georgia,United States,Acquired,32.0809263,-81.0911768,13
524,McGee Family Search Fund  ,Sonoma,California,United States,Acquired,38.603921,-122.88043568164407,06
528,"North Range, LLC  ",King,Washington,United States,Acquired,47.6038321,-122.3300624,53
529,Bells and Bear  ,King,Washington,United States,Acquired,47.6038321,-122.3300624,53
530,Partners Legacy  ,Travis,Texas,United States,Acquired,30.2711286,-97.7436995,48
533,Lynwood Street Capital  ,New York,New York,United States,Acquired,40.7127281,-74.0060152,36
534,Blue Spruce Management,Denver,Colorado,United States,Acquired,39.7392364,-104.9848623,08
535,"JCF Capital, LLC  ",New York,New York,United States,Acquired,40.7127281,-74.0060152,36
536,Bridgeway Management  ,Cuyahoga,Ohio,United States,Acquired,41.5051613,-81.6934446,39
538,Heartland  ,Oklahoma,Oklahoma,United States,Acquired,35.4729886,-97.5170536,40
540,Deep South Capital  ,Hinds,Mississippi,United States,Acquired,32.2990384,-90.1847691,28
541,"20 South Partners, LLC  ",San Francisco,California,United States,Acquired,37.7790262,-122.419906,06
543,SRV Ventures LLC  ,Dallas,Texas,United States,Acquired,32.7762719,-96.7968559,48
544,Onyx Capital GP  ,Fulton,Georgia,United States,Acquired,33.7489924,-84.3902644,13
545,Continuum Capital  ,Fulton,Georgia,United States,Acquired,33.7489924,-84.3902644,13
546,Obsidian Point Partners  ,New York,New York,United States,Acquired,40.7127281,-74.0060152,36
547,Sierra Madre Group  ,Harris,Texas,United States,Acquired,29.7589382,-95.3676974,48
548,Crescent Way Capital Partners  ,Washtenaw,Michigan,United States,Acquired,42.2681569,-83.7312291,26
551,Bradford Lane Capital  ,Suffolk,Massachusetts,United States,Acquired,42.3602534,-71.0582912,25
553,"Gascoigne Capital, LLC  ",Jefferson,Alabama,United States,Acquired,33.5206824,-86.8024326,01
554,Herndon Legacy Partners  ,San Diego,California,United States,Acquired,32.7174202,-117.1627728,06
555,Next Partners LLC  ,Cook,Illinois,United States,Acquired,41.9380405,-87.6666557,17
556,Victoriaside Capital  ,Suffolk,Massachusetts,United States,Acquired,42.3602534,-71.0582912,25
558,Carmel Hill Capital Partners  ,Wayne,Michigan,United States,Acquired,42.3315509,-83.0466403,26
559,Burk Investments  ,Broward,Florida,United States,Acquired,26.1223084,-80.1433786,12
560,KeelBoat Capital LLC  ,Allegheny,Pennsylvania,United States,Acquired,40.4416941,-79.9900861,42
561,Verdo Capital  ,Alameda,California,United States,Acquired,37.8044557,-122.2713563,06
562,Lehigh Valley Search Fund  ,Lehigh,Pennsylvania,United States,Acquired,40.6022059,-75.4712794,42
563,Grove Park Capital Partners  ,Hamilton,Ohio,United States,Acquired,39.1014537,-84.5124602,39
564,Mauve Capital Partners  ,Suffolk,Massachusetts,United States,Acquired,42.3602534,-71.0582912,25
565,Kogi Capital  ,Mecklenburg,North Carolina,United States,Acquired,35.2272086,-80.8430827,37
569,Horseshoe Lane Holdings  ,Kingman,Kansas,United States,Acquired,37.4416863,-98.4225773,20
570,Dhandho Partners  ,King,Washington,United States,Acquired,47.6038321,-122.3300624,53
573,Fairway Lane Partners  ,Travis,Texas,United States,Acquired,30.2711286,-97.7436995,48
574,Alta Pine Capital  ,Salt Lake,Utah,United States,Acquired,40.7596198,-111.8867975,49
576,Laurel Tree Partners  ,Suffolk,Massachusetts,United States,Acquired,42.3602534,-71.0582912,25
579,Estes Point  ,Suffolk,Massachusetts,United States,Acquired,42.3602534,-71.0582912,25
580,ADSC  ,San Francisco,California,United States,Acquired,37.7790262,-122.419906,06
581,Buck Jack Capital  ,Harris,Texas,United States,Acquired,29.7589382,-95.3676974,48
582,Forge Partners  ,Fulton,Georgia,United States,Acquired,33.7489924,-84.3902644,13
583,Seely Partners Capital  ,Suffolk,Massachusetts,United States,Acquired,42.3602534,-71.0582912,25
590,Square Mile Financial  ,Hudson,New Jersey,United States,Acquired,40.7433066,-74.0323752,34
591,WD Capital Holdings  ,New York,New York,United States,Acquired,40.7127281,-74.0060152,36
592,Broadtree Partners  ,Fulton,Georgia,United States,Acquired,33.7489924,-84.3902644,13
595,Windward Management  ,Dallas,Texas,United States,Acquired,32.7762719,-96.7968559,48
597,West-Atlantic Partners  ,Alameda,California,United States,Acquired,37.8753497,-122.23963364918777,06
600,Legacy Ventures  ,New York,New York,United States,Search,40.7127281,-74.0060152,36
601,KKH Capital Partners  ,New York,New York,United States,Acquired,40.7127281,-74.0060152,36
602,Brockhurst Capital Partners  ,Cook,Illinois,United States,Acquired,41.9380405,-87.6666557,17
603,Blue Cord Capital  ,Polk,Florida,United States,Acquired,27.7567667,-81.4639835,12
604,Crosswalk Capital  ,Hennepin,Minnesota,United States,Acquired,44.9772995,-93.2654692,27
606,Reserv Equity Partners  ,Fulton,Georgia,United States,Acquired,33.7489924,-84.3902644,13
608,Blue Cord Capital  ,Hillsborough,Florida,United States,Acquired,27.9477595,-82.458444,12
614,"Armatage Capital, LLC  ",Hennepin,Minnesota,United States,Acquired,44.9772995,-93.2654692,27
615,Seneca Trails Capital  ,Harris,Texas,United States,Acquired,29.7589382,-95.3676974,48
617,"Veritas Capital Management, LLC ",Edgecombe,North Carolina,United States,Acquired,35.9423833,-77.7956949,37
618,Succession Management Capital  ,San Mateo,California,United States,Acquired,37.4863239,-122.232523,06
619,LML Capital  ,San Francisco,California,United States,Acquired,37.7790262,-122.419906,06
621,West Fourth Partners  ,Travis,Texas,United States,Acquired,30.2711286,-97.7436995,48
622,Trucking industry ,San Bernardino,California,United States,Acquired,34.0660564,-117.5850629,06
623,"Sycamore Ridge Capital Partners, LLC  ",Lake,Illinois,United States,Search,42.371614,-88.125016,17
624,Timothy Fund  ,Orange,California,United States,Explore,33.6170092,-117.9294401,06
628,Eagle Peak Capital Partners  ,Miami-Dade,Florida,United States,Search,25.7741728,-80.19362,12
631,Malleus Capital  ,Suffolk,Massachusetts,United States,Explore,42.3602534,-71.0582912,25
632,Ellison Road Capital  ,Fulton,Georgia,United States,Explore,33.7489924,-84.3902644,13
635,"Oak Legacy Management, LLC  ",Dallas,Texas,United States,Search,32.7762719,-96.7968559,48
636,"Cardinal Bridge, LLC  ",New York,New York,United States,Search,40.7127281,-74.0060152,36
637,Umbrella Growth ,Hillsborough,Florida,United States,Explore,27.9477595,-82.458444,12
638,New Horizon Capital Partners  ,Travis,Texas,United States,Search,30.2711286,-97.7436995,48
641,Umbrella Growth ,Hillsborough,Florida,United States,Explore,27.9477595,-82.458444,12
645,Redwood Growth Partners  ,Alameda,California,United States,Search,37.8753497,-122.23963364918777,06
647,Eagle Leaf Group  ,Rawlins,Kansas,United States,Explore,39.909726,-100.785153,20
649,Clearfork Capital Partners LLC  ,Tarrant,Texas,United States,Search,32.753177,-97.3327459,48
650,Link Search Partners  ,New York,New York,United States,Inactive,40.7127281,-74.0060152,36
651,Silicon Hills Capital  ,Travis,Texas,United States,Raise,30.2711286,-97.7436995,48
652,Ravine Capital  ,New York,New York,United States,Search,40.7127281,-74.0060152,36
655,Broadtree Partners  ,Mecklenburg,North Carolina,United States,Search,35.2272086,-80.8430827,37
657,Hummingbird Search Partners  ,Charleston,South Carolina,United States,Search,32.7876012,-79.9402728,45
658,Gentleman Of Technology  ,Denver,Colorado,United States,Explore,39.7392364,-104.9848623,08
659,Blue Glass Capital  ,Middlesex,Massachusetts,United States,Raise,42.3750997,-71.1056157,25
660,"Service Capital Ventures, LLC  ",Bexar,Texas,United States,Search,29.4246002,-98.4951405,48
661,Level Hands  University of Virginia,Multnomah,Oregon,United States,Search,45.5202471,-122.6741949,41
667,Olive Coast Partners  ,Suffolk,Massachusetts,United States,Search,42.3602534,-71.0582912,25
668,Infinite Venture  ,Suffolk,Massachusetts,United States,Inactive,42.3602534,-71.0582912,25
669,Montague Street Private Partners  ,New York,New York,United States,Search,40.7127281,-74.0060152,36
670,Southwood Investment Partners  ,Fulton,Georgia,United States,Search,33.7489924,-84.3902644,13
676,Anodize Capital Partners  ,Maricopa,Arizona,United States,Search,33.4942189,-111.9260184,04
677,Vivus Consultancy Limited  ,Tulare,California,United States,Search,36.7014631,-118.755997,06
679,CAM Transitions  ,Mecklenburg,North Carolina,United States,Search,35.2272086,-80.8430827,37
680,Marlton Capital  ,Lake,Illinois,United States,Search,42.371614,-88.125016,17
681,Longview Capital & Management,San Francisco,California,United States,Inactive,37.7790262,-122.419906,06
684,93North Capital  ,Hettinger,North Dakota,United States,Search,46.5391751,-102.8682231,38
685,Ellery Partners  ,Cook,Illinois,United States,Search,41.8755616,-87.6244212,17
686,Anoakia Partners  ,New York,New York,United States,Inactive,40.7127281,-74.0060152,36
687,Hall Street Capital  ,Maricopa,Arizona,United States,Search,33.4484367,-112.0741417,04
688,Third Coast Capital  ,Harris,Texas,United States,Raise,29.7589382,-95.3676974,48
695,Cordelia Capital  ,Cook,Illinois,United States,Search,41.9380405,-87.6666557,17
697,Currahee Capital  United States Military Academy,Mecklenburg,North Carolina,United States,Inactive,35.2272086,-80.8430827,37
698,Lawnmarket Partners  ,New York,New York,United States,Raise,40.7127281,-74.0060152,36
699,OmniFidelis  ,Loudoun,Virginia,United States,Search,39.0300191,-77.46964646557657,51
702,Brookline Partners  ,Harris,Texas,United States,Search,29.7589382,-95.3676974,48
703,Beacon Tree Capital  ,Suffolk,Massachusetts,United States,Search,42.3602534,-71.0582912,25
704,Buffalo Point Partners  ,New York,New York,United States,Explore,40.7127281,-74.0060152,36
707,Provision  ,Fort Bend,Texas,United States,Raise,29.7857853,-95.8243956,48
708,Growth Equity Capital Partners  ,Lake,Illinois,United States,Search,42.2237746,-87.8746205,17
709,Physician Growth Partners  ,Lake,Illinois,United States,Search,42.371614,-88.125016,17
710,Rockpoint Capital LLC  ,New York,New York,United States,Search,40.7127281,-74.0060152,36
711,BroadWest Partners  ,New York,New York,United States,Search,40.7127281,-74.0060152,36
715,Castell Capital  ,Dallas,Texas,United States,Search,32.7762719,-96.7968559,48
716,Macinaw Management  ,Cook,Illinois,United States,Search,41.9380405,-87.6666557,17
717,Vitanova Equity Partners  ,Coleman,Texas,United States,Explore,31.8160381,-99.5120986,48
719,Otter ,New York,New York,United States,Explore,40.7127281,-74.0060152,36
720,Oak Grove Leadership  ,Suffolk,Massachusetts,United States,Inactive,42.3602534,-71.0582912,25
721,"Heritage Oaks Holdings, LLC  ",Denver,Colorado,United States,Acquired,39.7392364,-104.9848623,08
722,Applewood Equity Ventures  ,Cook,Illinois,United States,Search,41.9380405,-87.6666557,17
723,Timberlake Cove  ,Polk,Florida,United States,Inactive,27.7567667,-81.4639835,12
725,Black River Growth Partners  ,Fulton,Georgia,United States,Search,33.7489924,-84.3902644,13
726,The Bison Companies  ,Bristol,Virginia,United States,Inactive,36.5959685,-82.1885009,51
728,Mangrove Legacy  ,Miami-Dade,Florida,United States,Search,25.7741728,-80.19362,12
729,P.S. Development Capital  ,Cook,Illinois,United States,Search,41.9380405,-87.6666557,17
730,Tribula Group  ,New York,New York,United States,Inactive,40.7127281,-74.0060152,36
731,Brass Tower Equity Partners  ,Fulton,Georgia,United States,Inactive,33.7489924,-84.3902644,13
732,"Emerson Capital Partners, LLC  ",Miami-Dade,Florida,United States,Search,25.7741728,-80.19362,12
733,Three Pillars Capital  ,Cook,Illinois,United States,Raise,41.9380405,-87.6666557,17
735,Argosy Investors  ,Chatham,North Carolina,United States,Inactive,35.6729639,-79.0392919,37
737,Evermore Industries  ,Travis,Texas,United States,Search,30.2711286,-97.7436995,48
740,AK Growth Partners  ,Denver,Colorado,United States,Search,39.7392364,-104.9848623,08
741,MeadowView Succession Capital  ,Mecklenburg,North Carolina,United States,Search,35.481705,-80.8590006,37
742,Rock Lake  Purdue University,Hennepin,Minnesota,United States,Inactive,44.9772995,-93.2654692,27
743,Wehmeyer Enterprises (founded AED123)  ,Dallas,Texas,United States,Search,32.7762719,-96.7968559,48
744,No Name Events Fund  ,Miami-Dade,Florida,United States,Raise,25.7741728,-80.19362,12
746,Hive Industries llc  ,Harris,Texas,United States,Search,29.7589382,-95.3676974,48
748,Cedarwalk Capital  ,Orange,California,United States,Search,33.7500378,-117.8704931,06
749,Blue Water Partners ,Maricopa,Arizona,United States,Inactive,33.6292271,-112.3680189,04
750,Corvus Growth Capital  ,Lake,Illinois,United States,Raise,42.371614,-88.125016,17
751,Millchak LLC  ,New York,New York,United States,Search,40.7127281,-74.0060152,36
753,Hive  ,Harris,Texas,United States,Search,30.0798826,-95.4172549,48
754,HazelRock Capital  ,San Francisco,California,United States,Search,37.7790262,-122.419906,06
755,Jelly Capital  ,Harris,Texas,United States,Search,29.7589382,-95.3676974,48
758,Van Dien Capital  ,King,Washington,United States,Search,47.6038321,-122.3300624,53
762,Cobalt Peak Capital  United States Naval Academy,Harris,Texas,United States,Inactive,29.7589382,-95.3676974,48
763,8 Wire Capital  Stanford University - Graduate School of Business,Santa Clara,California,United States,Inactive,37.4443293,-122.1598465,06
764,Trevale Partners  ,Dallas,Texas,United States,Search,32.7762719,-96.7968559,48
767,LK South  ,Fulton,Georgia,United States,Search,33.7489924,-84.3902644,13
769,Ostrom Capital Partners  ,Cook,Illinois,United States,Search,41.8755616,-87.6244212,17
770,Ovi Capital  ,San Francisco,California,United States,Inactive,37.7790262,-122.419906,06
773,Drift Plains Capital Partners  ,Greenville,South Carolina,United States,Explore,34.854524,-82.232287,45
775,Lakeside Management Partners  West Virginia University,Orange,Florida,United States,Inactive,28.5656649,-81.5856742,12
776,Choice Capital  ,Hartford,Connecticut,United States,Raise,41.7655582,-72.69061276146614,09
779,Cicada Capital  ,Allegheny,Pennsylvania,United States,Explore,40.4416941,-79.9900861,42
780,Great Dome Partners  ,Suffolk,Massachusetts,United States,Explore,42.3602534,-71.0582912,25
782,ArchBeacon  ,Ocean,New Jersey,United States,Explore,40.0757384,-74.4041622,34
783,ZSB Investments LLC  ,Franklin,Ohio,United States,Search,39.9622601,-83.0007065,39
784,Roble Capital Partners  ,Suffolk,Massachusetts,United States,Search,42.3602534,-71.0582912,25
785,Tidewater Partners  ,Fulton,Georgia,United States,Inactive,33.7489924,-84.3902644,13
792,Iowa Style Search  ,King,Washington,United States,Inactive,47.6038321,-122.3300624,53
793,SeventeenOtis,Dallas,Texas,United States,Explore,32.7762719,-96.7968559,48
794,Janus Capital ,New York,New York,United States,Search,40.7127281,-74.0060152,36
796,Hamilton Hall  ,Allen,Indiana,United States,Search,41.0799898,-85.1386015,18
798,Growth Tree Capital  ,Wayne,Michigan,United States,Raise,42.3315509,-83.0466403,26
799,SeventeenOtis,Dallas,Texas,United States,Explore,32.7762719,-96.7968559,48
800,Edgehill Legacy Partners  ,Travis,Texas,United States,Inactive,30.2711286,-97.7436995,48
801,Northern Pine Partners  ,San Francisco,California,United States,Search,37.7790262,-122.419906,06
804,Rare Bird Capital  ,Bexar,Texas,United States,Inactive,29.4246002,-98.4951405,48
806,SeventeenOtis  ,Dallas,Texas,United States,Search,32.7762719,-96.7968559,48
807,Tenmore Investments  ,Multnomah,Oregon,United States,Explore,45.5202471,-122.6741949,41
809,Fairfield Enterprises  ,New York,New York,United States,Search,40.7127281,-74.0060152,36
810,POPPY CAPITAL  ,San Diego,California,United States,Search,32.7174202,-117.1627728,06
811,Heartland Legacy Fund  ,Park,Colorado,United States,Search,38.7251776,-105.607716,08
814,Kendall Park Partners LLC (KP2)  ,Cook,Illinois,United States,Search,41.8755616,-87.6244212,17
816,Lombardy  ,Santa Clara,California,United States,Inactive,37.4443293,-122.1598465,06
817,Drip Capital  ,New York,New York,United States,Raise,40.7127281,-74.0060152,36
818,PathWell  ,New York,New York,United States,Search,40.7127281,-74.0060152,36
819,Mike Lukach  ,Champaign,Illinois,United States,Search,40.1108179,-88.16197462561107,17
820,Trinity Forest Partners  ,Maricopa,Arizona,United States,Search,33.4484367,-112.0741417,04
823,Albaron Growth Partners ,New York,New York,United States,Explore,40.7127281,-74.0060152,36
825,Great Lion Healthcare  ,Fulton,Georgia,United States,Search,33.7489924,-84.3902644,13
826,WhiteHorn Partners  ,Travis,Texas,United States,Search,30.2711286,-97.7436995,48
830,Aviano Capital,Fairfield,Connecticut,United States,Search,41.0264862,-73.6284598,09
831,David De Ridder - Search Fund  ,Santa Clara,California,United States,Inactive,37.4265407,-122.17029258409188,06
834,Wright Place Search Partners ,Dare,North Carolina,United States,Explore,35.9573923,-75.624062,37
835,Aviano Capital  ,Fairfield,Connecticut,United States,Search,41.0264862,-73.6284598,09
838,WonderBrands Capital  ,Cook,Illinois,United States,Explore,41.9380405,-87.6666557,17
842,Duval Capital  ,Milwaukee,Wisconsin,United States,Explore,43.0349931,-87.922497,55
844,"Arcadia Legacy, LLC  ",Cook,Illinois,United States,Search,41.9380405,-87.6666557,17
845,Newton Tree Capital  ,Windham,Connecticut,United States,Search,41.8975977,-71.9625736,09
847,Kingsway CAP I  ,Santa Clara,California,United States,Search,37.4443293,-122.1598465,06
849,White Dove Equity  ,Orange,California,United States,Search,33.6155059,-117.7061294483584,06
850,Glanstone Capital  ,New York,New York,United States,Inactive,40.7127281,-74.0060152,36
851,"Search Fund Capital, LLC  ",Santa Clara,California,United States,Inactive,37.3790629,-122.116578,06
853,San Juan Bay Capital  ,Orocovis,Puerto Rico,United States,Search,18.2214149,-66.41328179513847,72
854,Annahvale Capital ,Ocean,New Jersey,United States,Raise,40.0757384,-74.4041622,34
855,"Enduring Businesses, LLC  ",Multnomah,Oregon,United States,Search,45.5202471,-122.6741949,41
860,Lusk Reserves  ,Fulton,Georgia,United States,Search,33.7489924,-84.3902644,13
861,Edgehill Legacy Partners  ,Travis,Texas,United States,Inactive,30.2711286,-97.7436995,48
863,Auxano Capital Partners  ,San Francisco,California,United States,Inactive,37.7790262,-122.419906,06
865,Copper River Capital Partners  ,Cook,Illinois,United States,Inactive,41.9380405,-87.6666557,17
866,Stegosaurus Ventures  ,Durham,North Carolina,United States,Inactive,35.996653,-78.9018053,37
867,Edgehill Legacy Partners  ,Travis,Texas,United States,Inactive,30.2711286,-97.7436995,48
868,Brevoort Company  ,New York,New York,United States,Search,40.7127281,-74.0060152,36
869,"Trudence, LLC  ",Suffolk,Massachusetts,United States,Explore,42.3602534,-71.0582912,25
870,"Bayard Capital Partners, LLC  Carnegie Mellon University - Tepper School of Business",Allegheny,Pennsylvania,United States,Inactive,40.4416941,-79.9900861,42
871,Magnus Oak Capital  Southwestern University,Harris,Texas,United States,Search,29.7589382,-95.3676974,48
872,The Cavanaugh Company ,Washtenaw,Michigan,United States,Search,42.2681569,-83.7312291,26
873,Tomahawk Digital Ventures,Philadelphia,Pennsylvania,United States,Inactive,39.9527237,-75.1635262,42
877,Mohan Industrial Acquisition  ,New York,New York,United States,Search,40.7127281,-74.0060152,36
879,Silvaner Capital  ,Travis,Texas,United States,Search,30.2711286,-97.7436995,48
880,Astorian Capital  ,Multnomah,Oregon,United States,Inactive,45.5202471,-122.6741949,41
881,"Decatur Road Capital, LLC  ",Fulton,Georgia,United States,Search,33.7489924,-84.3902644,13
883,Halstead Ventures  ,Harris,Texas,United States,Search,29.7589382,-95.3676974,48
884,Kynance Equity Partners  ,Santa Clara,California,United States,Search,37.3361905,-121.890583,06
886,AKAL investment LLC,Franklin,Ohio,United States,Search,39.9622601,-83.0007065,39
887,Fundamental Capital Partners  ,Palm Beach,Florida,United States,Explore,26.3586885,-80.0830984,12
889,Copper Falls Capital LLC  ,Richland,Wisconsin,United States,Search,43.5258118,-90.221516,55
890,Agilis Equity Partners  Harvard University - Harvard Business School,Mecklenburg,North Carolina,United States,Inactive,35.2272086,-80.8430827,37
891,Sangus Partners  ,Durham,North Carolina,United States,Search,35.996653,-78.9018053,37
892,AKAL investment LLC,Franklin,Ohio,United States,Search,39.9622601,-83.0007065,39
896,Fifty Fifth Capital  ,Harris,Texas,United States,Search,29.7589382,-95.3676974,48
898,AKAL investment LLC,Franklin,Ohio,United States,Search,39.9622601,-83.0007065,39
900,George Grignano  ,Decatur,Kansas,United States,Explore,39.7837304,-100.4458825,20
902,Passport Equity Partners  Babson College - F.W. Olin Graduate School,Suffolk,Massachusetts,United States,Inactive,42.3602534,-71.0582912,25
903,K SQUARED FUND LLC (K2)  ,Denver,Colorado,United States,Search,39.7392364,-104.9848623,08
904,Peak View Partners  ,San Francisco,California,United States,Inactive,37.7790262,-122.419906,06
905,Atlantic Succession Partners  ,Hudson,New Jersey,United States,Search,40.7215682,-74.047455,34
906,AKAL investment LLC,Franklin,Ohio,United States,Search,39.9622601,-83.0007065,39
907,Fonthill Capital  ,New York,New York,United States,Search,40.7127281,-74.0060152,36
908,Sandalwood West  ,San Francisco,California,United States,Search,37.7790262,-122.419906,06
910,Philmont Capital  ,San Diego,California,United States,Inactive,32.7174202,-117.1627728,06
912,Skyharbor Capital  ,Clark,Washington,United States,Search,45.5911103,-122.4122248,53
913,Wales Capital Partners  ,Dallas,Texas,United States,Explore,32.7762719,-96.7968559,48
914,West & J  ,San Francisco,California,United States,Search,37.7790262,-122.419906,06
915,CRED  ,New York,New York,United States,Inactive,40.7127281,-74.0060152,36
917,817 Capital LLC  ,Milwaukee,Wisconsin,United States,Search,43.0349931,-87.922497,55
919,Timpanogos Investments  ,Salt Lake,Utah,United States,Search,40.7596198,-111.8867975,49
920,Nadeer Capital Partners (NCP)  ,Miami-Dade,Florida,United States,Search,25.7741728,-80.19362,12
921,Western Ridge Partners  ,New York,New York,United States,Inactive,40.7127281,-74.0060152,36
922,Silver Chariot Capital  ,Lake,Illinois,United States,Inactive,42.371614,-88.125016,17
923,Duro Legacy  ,Dallas,Texas,United States,Search,32.7762719,-96.7968559,48
926,ALPHA FUND ,New York,New York,United States,Search,40.7127281,-74.0060152,36
927,SatVida Investment Group  ,Dallas,Texas,United States,Search,32.7762719,-96.7968559,48
928,Redwood Management Partners  ,San Francisco,California,United States,Inactive,37.7790262,-122.419906,06
929,"Jaxson Ventures, LLC  ",Fulton,Georgia,United States,Search,33.7489924,-84.3902644,13
930,Third Option Capital  ,Multnomah,Oregon,United States,Search,45.5202471,-122.6741949,41
931,Schroeder Capital ,Mecklenburg,North Carolina,United States,Search,35.2272086,-80.8430827,37
932,Eighth Summit Capital  ,New York,New York,United States,Search,40.7127281,-74.0060152,36
933,"The BearFund  University of California, Berkeley - Haas School of Business",San Francisco,California,United States,Inactive,37.7790262,-122.419906,06
935,Parody Tech Labs  ,Fulton,Georgia,United States,Search,33.7489924,-84.3902644,13
936,Gansett Lane Ventures LLC  ,Harris,Texas,United States,Explore,29.7589382,-95.3676974,48
937,Cherry Tree Capital  ,Suffolk,Massachusetts,United States,Search,42.3602534,-71.0582912,25
938,Chisholm Search  ,Dallas,Texas,United States,Search,32.7762719,-96.7968559,48
940,GLM Capital LLC  ,Chatham,North Carolina,United States,Explore,35.6729639,-79.0392919,37
941,Stella Labs Search LLC  Lousiana State University,Harris,Texas,United States,Search,29.7589382,-95.3676974,48
943,Next Chapter Growth  ,Denver,Colorado,United States,Search,39.7392364,-104.9848623,08
947,Leonidas Capital Partners (LCP)  ,Philadelphia,Pennsylvania,United States,Inactive,39.9527237,-75.1635262,42
948,KSquared Capital  ,New York,New York,United States,Inactive,40.7127281,-74.0060152,36
950,STECO Capital LLC  ,New York,New York,United States,Explore,40.7127281,-74.0060152,36
951,Succession Investor Group  ,Salt Lake,Utah,United States,Search,40.7596198,-111.8867975,49
952,Kent Hill Capital  ,King,Washington,United States,Search,47.6144219,-122.192337,53
954,Icosian Capital  ,Dallas,Texas,United States,Search,32.7762719,-96.7968559,48
955,CYK Capital LLC  ,Santa Clara,California,United States,Search,37.3688301,-122.036349,06
956,NEXUS GROWTH PARTNERS  ,Cook,Illinois,United States,Raise,41.9380405,-87.6666557,17
959,"Starboard Investments, LLC  ",Jefferson,Alabama,United States,Search,33.5206824,-86.8024326,01
960,Kabin Capital  Harvard University - Harvard Business School,New York,New York,United States,Search,40.7127281,-74.0060152,36
961,Parkland Field Management  ,Cook,Illinois,United States,Search,41.8755616,-87.6244212,17
962,Grizzly Equity Partners  ,Oakland,Michigan,United States,Raise,42.4605917,-83.1346478,26
963,H Alison LLC  ,Merrimack,New Hampshire,United States,Explore,43.4849133,-71.6553992,33
965,Echelon Equity  ,New Haven,Connecticut,United States,Inactive,41.29843435,-72.93102342707913,09
966,Devana Partners LLC  ,Cook,Illinois,United States,Inactive,41.9380405,-87.6666557,17
967,"Camber Peak, LLC  ",Fulton,Georgia,United States,Search,33.7489924,-84.3902644,13
968,Avenir Hospitality  ,New York,New York,United States,Search,40.7127281,-74.0060152,36
969,MTG Growth Partners  ,Fulton,Georgia,United States,Search,33.7489924,-84.3902644,13
970,Dilworth Capital  Lehigh Univervsity,Mecklenburg,North Carolina,United States,Search,35.2272086,-80.8430827,37
971,Caracal Capital  ,Allegheny,Pennsylvania,United States,Inactive,40.4416941,-79.9900861,42
972,Faraday Partner  ,New York,New York,United States,Search,40.7127281,-74.0060152,36
974,Tacoma Mountain Group  ,Prince George's,Maryland,United States,Search,38.99203005,-76.94610290199051,24
975,Northeast Legacy  ,Middlesex,Massachusetts,United States,Search,42.3750997,-71.1056157,25
976,Harper Street Partners  ,Lake,Illinois,United States,Inactive,42.371614,-88.125016,17
978,Cadence Capital Partners  ,Philadelphia,Pennsylvania,United States,Inactive,39.9527237,-75.1635262,42
979,Ten20 Partners  ,New York,New York,United States,Search,40.7127281,-74.0060152,36
980,Bending Metal Capital  ,Madison,Alabama,United States,Raise,34.729847,-86.5859011,01
981,Ardo Partners  ,Fulton,Georgia,United States,Raise,33.7489924,-84.3902644,13
982,JAKD Capital  ,New York,New York,United States,Explore,40.7127281,-74.0060152,36
983,SEARCHcrowdFUND  ,San Diego,California,United States,Search,32.7174202,-117.1627728,06
984,Domain Bay Capital  ,Harris,Texas,United States,Explore,29.7589382,-95.3676974,48
985,Ground Effect Partners  ,Dallas,Texas,United States,Raise,32.7762719,-96.7968559,48
986,Half Dome Capital  ,San Francisco,California,United States,Inactive,37.7790262,-122.419906,06
987,The Cata Company  ,Dallas,Texas,United States,Explore,32.7762719,-96.7968559,48
989,Dark Island Capital  ,Suffolk,Massachusetts,United States,Raise,42.3602534,-71.0582912,25
990,PARC Partners  ,Cook,Illinois,United States,Search,41.9380405,-87.6666557,17
992,sss  ,Miami-Dade,Florida,United States,Inactive,25.7741728,-80.19362,12
993,Logan growth Advisors  ,Cache,Utah,United States,Explore,41.7313447,-111.8348631,49
995,Perpetual Capital Group  ,Jackson,Missouri,United States,Explore,39.100105,-94.5781416,29
996,Washington Ross  ,San Francisco,California,United States,Search,37.7790262,-122.419906,06
997,Next Chapter Capital Partners  ,New York,New York,United States,Search,40.7127281,-74.0060152,36
998,Charmstone  Pepperdine University - Graziadio School of Business and Management,Hennepin,Minnesota,United States,Inactive,44.9772995,-93.2654692,27
999,"Nobska Partners, LLC  ",Suffolk,Massachusetts,United States,Inactive,42.3602534,-71.0582912,25
1001,Barr Dynamics LLC  ,Miami-Dade,Florida,United States,Search,25.7929198,-80.1353006,12
1002,Ovington Growth Management  ,San Francisco,California,United States,Search,37.7790262,-122.419906,06
1005,Chapter House Capital  ,San Francisco,California,United States,Search,37.7790262,-122.419906,06
1006,E-Commerce ,Ada,Idaho,United States,Search,43.6166163,-116.200886,16
1007,Five Lakes Equity Partners LLC  ,Cook,Illinois,United States,Search,41.8755616,-87.6244212,17
1009,Athens Point Capital  ,New York,New York,United States,Raise,40.7127281,-74.0060152,36
1010,Hammersmith Capital  ,Suffolk,Massachusetts,United States,Search,42.3602534,-71.0582912,25
1013,Horsemen Partners  Columbia College,Philadelphia,Pennsylvania,United States,Inactive,39.9527237,-75.1635262,42
1015,Tamalpais Industries LLC  ,Alameda,California,United States,Search,37.8044557,-122.2713563,06
1017,Rose Rock Holdings LLC  ,Bexar,Texas,United States,Search,29.4246002,-98.4951405,48
1023,Briarwood Equity Partners  ,King,Washington,United States,Search,47.6038321,-122.3300624,53
1024,Blazemark Capital Partners  ,Suffolk,Massachusetts,United States,Search,42.3602534,-71.0582912,25
1026,Honor Equity  ,Wayne,Michigan,United States,Search,42.4092038,-82.8918587,26
1028,Coopers Hawk Capital  ,Travis,Texas,United States,Explore,30.2711286,-97.7436995,48
1029,Cherrywood GC  ,Travis,Texas,United States,Search,30.2711286,-97.7436995,48
1030,Boardwalk  ,Suffolk,Massachusetts,United States,Search,42.3602534,-71.0582912,25
1032,Bonsai Group  ,Philadelphia,Pennsylvania,United States,Search,39.9527237,-75.1635262,42
1034,Cyber Knight Holdings  ,Tarrant,Texas,United States,Search,32.753177,-97.3327459,48
1035,"Beachton Capital Partners, LLC  ",Washtenaw,Michigan,United States,Search,42.2681569,-83.7312291,26
1037,Tallwell RAL ,Montgomery,Maryland,United States,Explore,38.9819845,-77.12423413116392,24
1038,Tom Spukas Capital  ,Cook,Illinois,United States,Explore,41.9380405,-87.6666557,17
1040,Dawn Treader Capital  ,Fulton,Georgia,United States,Raise,33.7489924,-84.3902644,13
1041,Hamon Capital  ,Suffolk,Massachusetts,United States,Search,42.3602534,-71.0582912,25
1043,KP Business Group  ,Cuyahoga,Ohio,United States,Search,41.5051613,-81.6934446,39
1048,Pilot Point  ,Cook,Illinois,United States,Search,41.9380405,-87.6666557,17
1050,"Levatso Holdings, LLC  ",New York,New York,United States,Search,40.7127281,-74.0060152,36
1051,Thomas John  ,San Francisco,California,United States,Explore,37.7790262,-122.419906,06
1054,Copper John Partners  ,Suffolk,Massachusetts,United States,Explore,42.3602534,-71.0582912,25
1055,"Howlett, LLC  ",Suffolk,Massachusetts,United States,Search,42.3602534,-71.0582912,25
1057,Spruce Lake Partners  ,Denver,Colorado,United States,Search,39.7392364,-104.9848623,08
1061,Trudence LLC  ,Suffolk,Massachusetts,United States,Search,42.3602534,-71.0582912,25
1062,NextGen Growth Partners - EIR Dave Bochetto & Josh Weiss  ,Lake,Illinois,United States,Search,42.371614,-88.125016,17
1063,The Morris Capital Group  ,Harris,Texas,United States,Search,29.7589382,-95.3676974,48
1065,W Capital Holdings  ,Mercer,New Jersey,United States,Explore,40.3492744,-74.6592958,34
1066,Signal Hill LLC  ,Spokane,Washington,United States,Search,47.6571934,-117.4235106,53
1067,Music City Partners  Vanderbilt University - Owen Graduate School of Management,Davidson,Tennessee,United States,Inactive,36.2206081,-86.69563733154433,47
1070,Generational Transfer Entrepreneurs - Dennis Osgood,Allegheny,Pennsylvania,United States,Search,40.4416941,-79.9900861,42
1071,Inflexion  ,San Francisco,California,United States,Explore,37.7790262,-122.419906,06
1072,"Bridgehouse Capital, LLC  ",Multnomah,Oregon,United States,Search,45.5202471,-122.6741949,41
1073,Megladon Capital  Central Michigan University - College of Business Administration,Wayne,Michigan,United States,Inactive,42.3315509,-83.0466403,26
1076,Legacy Road Partners  ,Cook,Illinois,United States,Search,41.9380405,-87.6666557,17
1077,BC Capital Partners  ,New York,New York,United States,Search,40.7127281,-74.0060152,36
1078,Emerald Succession Capital  ,New York,New York,United States,Search,40.7127281,-74.0060152,36
1079,Kachina Peaks Capital  ,Santa Clara,California,United States,Inactive,37.4443293,-122.1598465,06
1082,Bear Brook LLC  ,King,Washington,United States,Search,47.6038321,-122.3300624,53
1083,Monan  ,Middlesex,Massachusetts,United States,Search,42.3750997,-71.1056157,25
1086,East Franklin  ,Snohomish,Washington,United States,Search,47.9673056,-122.2013998,53
1087,Radazon Capital  ,Fulton,Georgia,United States,Search,33.7489924,-84.3902644,13
1089,Frederico Holdings  ,Cook,Illinois,United States,Search,41.8755616,-87.6244212,17
1090,Activus Capital Partners  ,Travis,Texas,United States,Search,30.2711286,-97.7436995,48
1091,Mirpur LLC  ,Orange,California,United States,Search,33.7500378,-117.8704931,06
1092,Veterans Capital Partners,Ocean,New Jersey,United States,Raise,40.0757384,-74.4041622,34
1093,Cooper Square Partners  ,New York,New York,United States,Search,40.7127281,-74.0060152,36
1094,Longeron LLC  ,King,Washington,United States,Search,47.6859573,-122.1920249,53
1097,River Wise Ventures  ,Durham,North Carolina,United States,Search,35.996653,-78.9018053,37
1099,12th Regiment  ,Harris,Texas,United States,Search,29.7589382,-95.3676974,48
1100,Brightvision Partners  ,Santa Clara,California,United States,Search,37.3893889,-122.0832101,06
1101,Informed Capital Management  ,Durham,North Carolina,United States,Search,35.996653,-78.9018053,37
1102,"Stableside Capital, LLC  ",Cook,Illinois,United States,Search,41.9380405,-87.6666557,17
1107,Needham Heights Holdings  ,Suffolk,Massachusetts,United States,Search,42.3602534,-71.0582912,25
1108,Michael Ford EIR - The Nashton Company  ,Hartford,Connecticut,United States,Search,41.7655582,-72.69061276146614,09
1109,Blue Wood Capital  ,King,Washington,United States,Search,47.6038321,-122.3300624,53
1111,Enduring Business LLC  ,Cook,Illinois,United States,Search,41.9380405,-87.6666557,17
1113,Blakemore Holdings  ,Clark,Washington,United States,Search,45.6306954,-122.6744557,53
1114,REID Atlantic  ,Carroll,Maryland,United States,Raise,39.5162234,-76.9382069,24
1115,Beam Reach Capital Partners  ,New York,New York,United States,Inactive,40.7127281,-74.0060152,36
1116,Goshen Park Capital  ,Montgomery,Maryland,United States,Search,38.9822473,-77.0881873,24
1117,Selection Capital  ,Cook,Illinois,United States,Search,41.9380405,-87.6666557,17
1118,Ocean Leap Capital  ,Santa Clara,California,United States,Explore,37.3361905,-121.890583,06
1119,NextGen Growth Partners - EIR Nick Oberhouse  ,Cook,Illinois,United States,Explore,41.9380405,-87.6666557,17
1120,"Sunny Acres Management, LLC  ",San Mateo,California,United States,Search,37.4863239,-122.232523,06
1121,Vorchheimer Partners  ,New York,New York,United States,Search,40.7127281,-74.0060152,36
1122,JMS Management Partners  Georgia Institute of Technology - Ernest Scheller Jr. College of Business,Fulton,Georgia,United States,Search,33.7489924,-84.3902644,13
1126,Ocean Leap Capital  ,Santa Clara,California,United States,Search,37.3228934,-122.0322895,06
1127,Broadtree Partners - James Han  ,San Diego,California,United States,Search,32.7174202,-117.1627728,06
1128,Graves Hall Capital  ,New York,New York,United States,Search,40.7127281,-74.0060152,36
1129,Birch Swing Capital  Harvard University - Harvard Business School,New York,New York,United States,Search,40.7127281,-74.0060152,36
1132,North American Medical Partners  ,Alameda,California,United States,Explore,37.8753497,-122.23963364918777,06
1138,Imaging Centers  ,Dallas,Texas,United States,Raise,32.7762719,-96.7968559,48
1139,Birch Heritage Partners  ,Cook,Illinois,United States,Raise,41.9380405,-87.6666557,17
1140,Kinnan Capital  ,Hennepin,Minnesota,United States,Inactive,44.9772995,-93.2654692,27
1141,Juenger Holdings  ,Cook,Illinois,United States,Search,41.9380405,-87.6666557,17
1143,Tech Sponsor  ,San Francisco,California,United States,Search,37.7884969,-122.3558473,06
1144,"Figure 8 Holdings, LLC  ",Lehigh,Pennsylvania,United States,Search,40.6022059,-75.4712794,42
1145,Trident Holding Group  ,Miami-Dade,Florida,United States,Inactive,25.7741728,-80.19362,12
1146,Journey Capital Partners,Cook,Illinois,United States,Inactive,41.9380405,-87.6666557,17
1147,Building Product Acquisition Corp  ,New York,New York,United States,Search,40.7127281,-74.0060152,36
1149,Mentos Capital  ,Lee,Florida,United States,Search,26.339806,-81.7786972,12
1150,Meru Venture Partners  ,Collier,Florida,United States,Search,26.1421976,-81.7942944,12
1152,Vineyard Infrastructure,New York,New York,United States,Search,40.7127281,-74.0060152,36
1153,Flag Tree Capital  ,San Francisco,California,United States,Inactive,37.7790262,-122.419906,06
1155,"Chop Point, LLC  ",Suffolk,Massachusetts,United States,Explore,42.3602534,-71.0582912,25
1156,Horizon Point Capital LLC  ,New York,New York,United States,Search,40.7127281,-74.0060152,36
1157,M&P Investments  ,Tarrant,Texas,United States,Search,32.753177,-97.3327459,48
1158,Jay Finch & Partners  ,Centre,Pennsylvania,United States,Search,40.9699889,-77.7278831,42
1159,Toulouse Tower  ,Tarrant,Texas,United States,Search,32.9412363,-97.1341783,48
1160,The Brevoort Company  ,New York,New York,United States,Explore,40.7127281,-74.0060152,36
1161,Legacy Bridge Capital LLC  ,Harris,Texas,United States,Search,29.7589382,-95.3676974,48
1164,FNMPG  ,Natrona,Wyoming,United States,Search,42.8501191,-106.325138,56
1165,Greytwig Capital  ,Los Angeles,California,United States,Search,33.86428,-118.39591,06
1166,Broadtree Parnters - Patrick Briggs  ,New York,New York,United States,Search,40.7127281,-74.0060152,36
1167,Guardian Growth Fund  ,Dallas,Texas,United States,Inactive,32.7762719,-96.7968559,48
1169,Teak Partners LLC  ,New York,New York,United States,Search,40.7127281,-74.0060152,36
1172,Coneg LLC  ,Denver,Colorado,United States,Search,39.7392364,-104.9848623,08
1175,HSX Ventures  ,Pierce,Washington,United States,Search,47.2495798,-122.4398746,53
1176,Bowen Falls Capital  ,Davidson,Tennessee,United States,Search,36.2206081,-86.69563733154433,47
1179,Malvern Capital Group  ,Prince George's,Maryland,United States,Search,38.99203005,-76.94610290199051,24
1181,Search Investment Group  ,Dallas,Texas,United States,Search,32.7762719,-96.7968559,48
1182,Principia Capital  ,Harris,Texas,United States,Search,29.7589382,-95.3676974,48
1183,"Odum Capital, LLC  ",Suffolk,Massachusetts,United States,Search,42.3602534,-71.0582912,25
1184,Lincoln Capital Partners  ,Cook,Illinois,United States,Search,41.8755616,-87.6244212,17
1185,Hardscrabble Capital  ,Davidson,Tennessee,United States,Explore,36.2206081,-86.69563733154433,47
1186,Lionfield Capital LLC  ,Miami-Dade,Florida,United States,Search,25.7741728,-80.19362,12
1187,Norris  ,Travis,Texas,United States,Explore,30.2711286,-97.7436995,48
1188,Olympia North  ,New York,New York,United States,Search,40.7127281,-74.0060152,36
1190,Halliard Capital  ,Monmouth,New Jersey,United States,Search,40.2601096,-74.2737573,34
1191,Bellator Trust  ,San Francisco,California,United States,Search,37.7790262,-122.419906,06
1192,Momentum Capital Partners  ,Salt Lake,Utah,United States,Search,40.7596198,-111.8867975,49
1194,Olive Ridge Partners LLC  ,Denver,Colorado,United States,Search,39.7392364,-104.9848623,08
1198,Peng Management  ,New York,New York,United States,Explore,40.7127281,-74.0060152,36
1199,Kanken Marketing Group LLC  ,Cook,Illinois,United States,Search,41.9380405,-87.6666557,17
1201,Blackburne Search Ventures  ,Fulton,Georgia,United States,Search,33.7489924,-84.3902644,13
1202,"Glen Prairie Capital, LLC  ",Cook,Illinois,United States,Search,41.8755616,-87.6244212,17
1203,Harbas Capital  ,Suffolk,Massachusetts,United States,Search,42.3602534,-71.0582912,25
1204,Camac Management  ,Fulton,Georgia,United States,Search,33.7489924,-84.3902644,13
1205,Astral Point Capital  ,Harris,Texas,United States,Explore,29.7589382,-95.3676974,48
1206,Laminar Equity  ,Denver,Colorado,United States,Explore,39.7392364,-104.9848623,08
1207,Blue Ocean Equity Partners  ,Norfolk,Massachusetts,United States,Inactive,42.2489143,-71.1755732,25
1212,LifeFocus Capital  ,Allegheny,Pennsylvania,United States,Search,40.4416941,-79.9900861,42
1216,Gravete Partners  ,Travis,Texas,United States,Search,30.2711286,-97.7436995,48
1217,Logos Capital Group - Search Fund  ,Miami-Dade,Florida,United States,Raise,25.7741728,-80.19362,12
1219,Sound Heritage Partners  ,King,Washington,United States,Search,47.6038321,-122.3300624,53
1220,RC Consulting LLC  ,Davis,Utah,United States,Search,41.0349847,-111.9383931,49
1221,Bruin Point Partners  ,New York,New York,United States,Search,40.7127281,-74.0060152,36
1223,Parkside Capital Partners  ,New York,New York,United States,Search,40.7127281,-74.0060152,36
1224,Katahdin Growth Partners  ,Suffolk,Massachusetts,United States,Search,42.3602534,-71.0582912,25
1227,JMT Capital Partners  ,Utah,Utah,United States,Search,40.3641184,-111.73854,49
1228,Plus2 Capital (fund developed Eligibility.com. Acquired in 2017.)  ,San Diego,California,United States,Inactive,32.7174202,-117.1627728,06
1231,Novo Capital  ,Santa Clara,California,United States,Explore,37.3361905,-121.890583,06
1232,Lucero Investments  ,Dallas,Texas,United States,Search,32.7762719,-96.7968559,48
1233,The Blackethouse Group  The University of North Carolina at Chapel Hill - Kenan-Flagler Business School,Wake,North Carolina,United States,Inactive,35.7803977,-78.6390989,37
1234,Selachian Capital Partners  ,East Baton Rouge Parish,Louisiana,United States,Raise,30.4515796,-91.103326828372,22
1235,Canfield Enterprise  ,Hennepin,Minnesota,United States,Explore,44.9772995,-93.2654692,27
1237,Hakob Keymetlyan  ,Ocean,New Jersey,United States,Explore,40.0757384,-74.4041622,34
1239,IML Ventures  ,Cook,Illinois,United States,Search,41.9380405,-87.6666557,17
1240,Integrit Ops  ,Jackson,Missouri,United States,Search,39.100105,-94.5781416,29
1241,Kennedy Capital Ventures  ,Maricopa,Arizona,United States,Explore,33.4484367,-112.0741417,04
1242,608 Partners LLC  ,New York,New York,United States,Search,40.7127281,-74.0060152,36
1245,Bull Capital  ,Lake,Michigan,United States,Search,43.8808339,-85.8017583,26
1246,Lenticular Growth Partners  ,San Francisco,California,United States,Search,37.7790262,-122.419906,06
1248,Caprock Legacy Partners  ,Travis,Texas,United States,Search,30.2711286,-97.7436995,48
1251,Great Plains Partners  ,Duval,Florida,United States,Search,30.3321838,-81.655651,12
1253,Bow Bridge  ,New York,New York,United States,Search,40.7127281,-74.0060152,36
1254,Greg Carrico  ,Tarrant,Texas,United States,Search,32.753177,-97.3327459,48
1255,The Michigan Purchase  ,Isabella,Michigan,United States,Search,43.6211955,-84.6824346,26
1257,"PERSHING BARRACKS CAPITAL, LLC.  ",Madison,Alabama,United States,Search,34.6928726,-86.7511427,01
1258,NextGen Growth Partners - EIR Jacob Levine  ,Cook,Illinois,United States,Search,41.9380405,-87.6666557,17
1259,TBD,New York,New York,United States,Explore,40.7127281,-74.0060152,36
1260,Dynamis Ventures  ,Travis,Texas,United States,Explore,30.2711286,-97.7436995,48
1261,Peak Legacy Partners  ,Decatur,Kansas,United States,Search,39.7837304,-100.4458825,20
1262,Plateau Asset Management  ,Suffolk,Massachusetts,United States,Inactive,42.3602534,-71.0582912,25
1263,SL Group  ,New York,New York,United States,Search,40.7127281,-74.0060152,36
1264,Ryan Heider  ,Cuyahoga,Ohio,United States,Explore,41.5051613,-81.6934446,39
1265,Vista Highland ,Fairfield,Connecticut,United States,Search,41.072089,-73.54443614832871,09
1266,Longreach Capital  Harvard University - Harvard Business School,Suffolk,Massachusetts,United States,Inactive,42.3602534,-71.0582912,25
1267,Peak 5 Capital  ,Denver,Colorado,United States,Search,39.7392364,-104.9848623,08
1268,M Legacy Capital  ,Suffolk,Massachusetts,United States,Search,42.3602534,-71.0582912,25
1269,Plaeris LLC  ,New York,New York,United States,Search,40.7127281,-74.0060152,36
1272,Voyage Partners  ,McLennan,Texas,United States,Search,31.549333,-97.1466695,48
1273,LunaNav  ,Fulton,Georgia,United States,Search,33.8417681,-84.3859565786095,13
1277,Fifth Partners  ,Salt Lake,Utah,United States,Search,40.7596198,-111.8867975,49
1278,Bird Capital  ,San Diego,California,United States,Search,32.7174202,-117.1627728,06
1280,NAC Capital  ,Worcester,Massachusetts,United States,Search,42.3788774,-72.032366,25
1282,Bema Capital  ,Dallas,Texas,United States,Search,32.7762719,-96.7968559,48
1285,B612 Capital partners  ,San Diego,California,United States,Explore,32.7174202,-117.1627728,06
1286,SCO Private Capital  ,Cook,Illinois,United States,Search,42.0291159,-87.7509013,17
1287,Black Opal Equity  ,New York,New York,United States,Inactive,40.7127281,-74.0060152,36
1288,Oak Lane Dental  ,Franklin,Ohio,United States,Inactive,39.9622601,-83.0007065,39
1290,Succession Management Capital,San Mateo,California,United States,Search,37.4863239,-122.232523,06
1292,Millwell LLC  Harvard University,Isabella,Michigan,United States,Search,43.6211955,-84.6824346,26
1293,Mazur Capital  ,Suffolk,Massachusetts,United States,Search,42.3602534,-71.0582912,25
1294,"Fairwater Partners, LLC  ",Dallas,Texas,United States,Search,32.7762719,-96.7968559,48
1295,Hanok Ventures  ,Indiana,Pennsylvania,United States,Raise,40.6214551,-79.1525349,42
1296,Succession Management Capital,San Mateo,California,United States,Search,37.4863239,-122.232523,06
1298,m3 Capital Partners  ,Oakland,Michigan,United States,Search,42.6055893,-83.1499304,26
1299,West Equity  ,Maricopa,Arizona,United States,Search,33.4484367,-112.0741417,04
1301,Impact Industry Capital  ,Travis,Texas,United States,Explore,30.2711286,-97.7436995,48
1302,TriCap Investment  ,Davidson,Tennessee,United States,Search,36.2206081,-86.69563733154433,47
1304,Prelude Partners  ,Utah,Utah,United States,Inactive,40.2338438,-111.6585337,49
1305,Goliad Equity  ,Tarrant,Texas,United States,Search,32.753177,-97.3327459,48
1307,MSP  ,Maricopa,Arizona,United States,Search,33.4942189,-111.9260184,04
1308,Brush Creek Investments  ,Davis,Utah,United States,Search,40.8894611,-111.8804817,49
1309,CHG,New York,New York,United States,Inactive,40.7127281,-74.0060152,36
1310,Federal Guardian  ,Tarrant,Texas,United States,Search,32.701939,-97.105623790337,48
1311,Crossroads Capital  ,Duval,Florida,United States,Raise,30.3321838,-81.655651,12
1312,Worklyn Partners  ,Philadelphia,Pennsylvania,United States,Search,39.9527237,-75.1635262,42
1313,"Hometap, LLC  ",San Francisco,California,United States,Search,37.7790262,-122.419906,06
1314,Nobska Partners LLC  Northwestern University - Kellogg School of Management,Suffolk,Massachusetts,United States,Inactive,42.3602534,-71.0582912,25
1315,Market Square Capital  ,Rockingham,New Hampshire,United States,Inactive,43.0702223,-70.7548621,33
1316,Ringside Capital  ,Sangamon,Illinois,United States,Raise,39.7990175,-89.6439575,17
1317,Baileywick Capital  ,Maricopa,Arizona,United States,Raise,33.4942189,-111.9260184,04
1319,Pitch Lake Capital  ,New York,New York,United States,Raise,40.7127281,-74.0060152,36
1320,Cedar Tower Holdings  ,New York,New York,United States,Inactive,40.7127281,-74.0060152,36
1321,Byzantium Capital  Emory University - Goizueta Business School,Fulton,Georgia,United States,Raise,33.7849591,-84.442163,13
1322,Encinno Capital  ,Santa Fe,New Mexico,United States,Search,35.6876096,-105.9384569,35
1323,Forge Capital Partners  ,Ada,Idaho,United States,Explore,43.6166163,-116.200886,16
1324,Kindly Light  ,New York,New York,United States,Search,40.7127281,-74.0060152,36
1325,Winterberry Capital Partners  ,Chittenden,Vermont,United States,Explore,44.4761601,-73.212906,50
1326,Thomas Street Partners  ,Suffolk,Massachusetts,United States,Search,42.3602534,-71.0582912,25
1327,Fowler House Capital  ,Suffolk,Massachusetts,United States,Inactive,42.3602534,-71.0582912,25
1329,"Sideslip Capital, LLC  ",Dallas,Texas,United States,Search,32.7762719,-96.7968559,48
1331,Kindly Light  ,New York,New York,United States,Search,40.7127281,-74.0060152,36
1333,Wincoe Capital  ,Cook,Illinois,United States,Search,41.9380405,-87.6666557,17
1334,Cooperrito  ,Suffolk,Massachusetts,United States,Inactive,42.3602534,-71.0582912,25
1335,Goldilock Capital  ,San Francisco,California,United States,Inactive,37.7790262,-122.419906,06
1337,Extended Legacy  ,Fulton,Georgia,United States,Search,33.7489924,-84.3902644,13
1338,SeanHendrix Enterprises  ,Providence,Rhode Island,United States,Search,41.7962409,-71.5992372,44
1339,Alpha Workspaces  ,Harris,Texas,United States,Search,29.7589382,-95.3676974,48
1340,Vesper Street Company  ,Cumberland,Maine,United States,Search,43.5902122,-70.3392584,23
1341,Black Mountain Equity  Yale University,San Mateo,California,United States,Inactive,37.598958,-122.4009419,06
1343,Big Branch Capital  ,Westchester,New York,United States,Search,41.1763139,-73.7907554,36
1345,Samuel DaSilva  ,New York,New York,United States,Explore,40.7127281,-74.0060152,36
1348,White Oaks Holding  ,New York,New York,United States,Search,40.7127281,-74.0060152,36
1349,Elm Lake LLC,Suffolk,Massachusetts,United States,Explore,42.3602534,-71.0582912,25
1350,"Besa Venture Group, LLC  ",Hartford,Connecticut,United States,Explore,41.6500201,-72.7342163,09
1351,"Verbena Capital, LLC  ",Harris,Texas,United States,Search,30.0798826,-95.4172549,48
1352,Elm Lake LLC,Suffolk,Massachusetts,United States,Explore,42.3602534,-71.0582912,25
1355,"Regent Square Capital, LLC  ",Allegheny,Pennsylvania,United States,Search,40.4416941,-79.9900861,42
1359,Bonne Cibo Hospitality Group  ,New York,New York,United States,Search,40.7127281,-74.0060152,36
1364,Lion Creek Capital  ,Flathead,Montana,United States,Search,48.4108018,-114.334624,30
1365,Strongpoint Management Group  ,Montour,Pennsylvania,United States,Search,40.9664806,-76.6131474,42
1366,Not A Search Fund - Need IBIS access  ,Knox,Maine,United States,Explore,44.210265,-69.065552,23
1367,Mera Capital Partners  ,Lake,Illinois,United States,Inactive,42.371614,-88.125016,17
1368,The Madrone Group  ,San Francisco,California,United States,Inactive,37.7790262,-122.419906,06
1370,"Platinum Oak, LLC  ",Middlesex,Massachusetts,United States,Search,42.4523178,-71.1369982,25
1373,Green Owl Partners  ,Travis,Texas,United States,Search,30.2711286,-97.7436995,48
1374,Verse Capital  ,Salt Lake,Utah,United States,Raise,40.7596198,-111.8867975,49
1375,Legacy Health Capital  ,Tulare,California,United States,Search,36.7014631,-118.755997,06
1377,Oxygen Equity  ,San Francisco,California,United States,Inactive,37.7790262,-122.419906,06
1380,One Legacy Capital  ,Miami-Dade,Florida,United States,Search,25.7741728,-80.19362,12
1382,Generational Transfer Entrepreneurs - Dave Jasnos  ,Allegheny,Pennsylvania,United States,Search,40.4416941,-79.9900861,42
1384,Flight Plan Equity  ,Hillsborough,Florida,United States,Search,27.9477595,-82.458444,12
1385,TriBeCa Group LLC  ,Somerset,New Jersey,United States,Explore,40.684268,-74.6357148,34
1387,Olympic Valley Capital  ,San Francisco,California,United States,Inactive,37.7790262,-122.419906,06
1389,Ludlow Capital  ,Alameda,California,United States,Search,37.8044557,-122.2713563,06
1390,TICA Financial  ,Travis,Texas,United States,Search,30.2711286,-97.7436995,48
1392,165 Capital  ,New Haven,Connecticut,United States,Raise,41.29843435,-72.93102342707913,09
1393,Pella Capital  ,Cook,Illinois,United States,Explore,41.8755616,-87.6244212,17
1395,Big Cove  ,Fulton,Georgia,United States,Search,33.7489924,-84.3902644,13
1396,Commencement Bay Partners  ,King,Washington,United States,Inactive,47.6038321,-122.3300624,53
1397,Tealium Capital  ,Salt Lake,Utah,United States,Raise,40.7596198,-111.8867975,49
1398,Morris Prospect  ,Santa Clara,California,United States,Raise,37.3893889,-122.0832101,06
1399,CloudStreet Partners  ,Collin,Texas,United States,Search,33.0136764,-96.6925096,48
1400,Hexagon Holdings LLC  ,Fulton,Georgia,United States,Search,33.7489924,-84.3902644,13
1402,Twin Peaks Capital  ,San Francisco,California,United States,Inactive,37.7790262,-122.419906,06
1404,Clarendon Search Partners  ,Cook,Illinois,United States,Search,41.9380405,-87.6666557,17
1405,Capital Stack - Foundation Fund I ,Salt Lake,Utah,United States,Raise,40.5246711,-111.8638226,49
1406,"Avon Growth Management, LLC  ",Tulare,California,United States,Explore,36.7014631,-118.755997,06
1407,ATMA Holdings  ,New York,New York,United States,Explore,40.7127281,-74.0060152,36
1409,Clarendon Search Partners  ,Cook,Illinois,United States,Search,41.9380405,-87.6666557,17
1410,Metamora Growth Partners  ,San Francisco,California,United States,Search,37.7790262,-122.419906,06
1411,"North Brookside Capital, LLC  ",New York,New York,United States,Explore,40.7127281,-74.0060152,36
1412,"The Hillview Group, LLC  ",Sarasota,Florida,United States,Explore,27.3364347,-82.5306527,12
1414,Brian Hartman  ,St. Lucie,Florida,United States,Explore,27.2939333,-80.3503283,12
1415,Mike Delta Enterprises  ,Prince Edward,Virginia,United States,Search,37.1232245,-78.4927721,51
1416,"Riviti, Inc  ",Miami-Dade,Florida,United States,Search,25.72149,-80.2683838,12
1417,Succession FLE Capital  ,San Diego,California,United States,Search,32.7174202,-117.1627728,06
1418,Accretive Value Group  ,Lehigh,Pennsylvania,United States,Inactive,40.6022059,-75.4712794,42
1419,Simetra Operator Fund  ,Wake,North Carolina,United States,Raise,35.7803977,-78.6390989,37
1420,Kamel Capital  ,Dallas,Texas,United States,Search,32.7762719,-96.7968559,48
1422,"Blue Guard Capital, LLC  ",New York,New York,United States,Search,40.7127281,-74.0060152,36
1424,Afton Capital Partners  University of Pennsylvania - The Wharton School,Travis,Texas,United States,Search,30.2711286,-97.7436995,48
1425,LexingtonSearch Fund Partners,Fayette,Kentucky,United States,Explore,38.0464066,-84.4970393,21
1426,Cooperative Equity  ,New York,New York,United States,Search,40.7127281,-74.0060152,36
1427,Bondcliff Capital  ,Suffolk,Massachusetts,United States,Search,42.3602534,-71.0582912,25
1429,Oakhurst Capital Partners  ,Cumberland,Maine,United States,Search,43.5931434,-70.2289333,23
1430,Perpetual Motion Capital  ,Lake,Illinois,United States,Inactive,42.371614,-88.125016,17
1433,Wilba Capital  ,New York,New York,United States,Search,40.7127281,-74.0060152,36
1434,Elm Lake  ,Grafton,New Hampshire,United States,Search,43.643032,-72.251587,33
1437,Gritty Capital  ,Chittenden,Vermont,United States,Search,44.4761601,-73.212906,50
1438,Preon Ventures LLC  ,New York,New York,United States,Explore,40.7127281,-74.0060152,36
1440,Golden Eagle Capital Partners  ,Cook,Illinois,United States,Raise,41.9380405,-87.6666557,17
1441,Blue Ono Capital  ,Marin,California,United States,Search,37.9735346,-122.5310874,06
1444,Janus Capital  ,New York,New York,United States,Search,40.7127281,-74.0060152,36
1446,CXVI GROUP  ,Adams,Colorado,United States,Explore,39.90699835,-104.83739971948133,08
1447,Woodland Coast Partners  ,New York,New York,United States,Search,40.7127281,-74.0060152,36
1448,Ven Capital Partners  ,Clark,Nevada,United States,Search,36.0301134,-114.9826194,32
1449,Monarch Point Capital  ,Indian River,Florida,United States,Inactive,27.6387163,-80.3975399,12
1450,Era Services Group  ,Suffolk,Massachusetts,United States,Raise,42.3602534,-71.0582912,25
1451,Greenhouse Equity Partners  ,Cook,Illinois,United States,Search,41.9380405,-87.6666557,17
1452,Aura Capital Partners LLC  ,New York,New York,United States,Explore,40.7127281,-74.0060152,36
1453,David Dodson - 2nd Searchfund  ,Santa Clara,California,United States,Acquired,37.4443293,-122.1598465,06
1454,828 Capital  ,Fulton,Georgia,United States,Explore,33.7489924,-84.3902644,13
1457,Cortlandt Park  ,San Francisco,California,United States,Search,37.7790262,-122.419906,06
1458,Timberwind Capital Partners  ,New York,New York,United States,Search,40.7127281,-74.0060152,36
1459,Cultres Capital ,Harris,Texas,United States,Search,29.7589382,-95.3676974,48
1460,Tipping Point  ,Decatur,Kansas,United States,Search,39.7837304,-100.4458825,20
1461,SciTech Research & Analytics Inc.  ,Carroll,Maryland,United States,Search,39.5162234,-76.9382069,24
1462,"Talos Training, LLC  ",Travis,Texas,United States,Explore,30.2711286,-97.7436995,48
1463,Davie Poplar Capital  University of North Carolina at Chapel Hill,Wake,North Carolina,United States,Search,35.7803977,-78.6390989,37
1464,Acta Ventures  ,Allegheny,Pennsylvania,United States,Search,40.4416941,-79.9900861,42
1465,Dove Road Partners  ,Harris,Texas,United States,Search,29.7589382,-95.3676974,48
1466,Indiana University  ,Monroe,Indiana,United States,Explore,39.1670396,-86.5342881,18
1467,Onyx Peak Capital  ,Hillsborough,Florida,United States,Raise,27.9477595,-82.458444,12
1468,Vogl Ventures  ,New York,New York,United States,Search,40.7127281,-74.0060152,36
1469,Acta Ventures  ,Allegheny,Pennsylvania,United States,Search,40.4416941,-79.9900861,42
1473,"S5, LLC  ",New York,New York,United States,Explore,40.7127281,-74.0060152,36
1474,Adamantine Value  ,New York,New York,United States,Raise,40.7127281,-74.0060152,36
1475,Palestra Capital  ,Harris,Texas,United States,Raise,29.7589382,-95.3676974,48
1477,Seneca Health Ventures  ,New York,New York,United States,Search,40.7127281,-74.0060152,36
1478,"Antelum Capital Partners, LLC  University of Pennsylvania - The Wharton School",Fairfax,Virginia,United States,Inactive,38.955696,-77.34188283719988,51
1480,Amplify Capital  ,New York,New York,United States,Search,40.7127281,-74.0060152,36
1483,"Next Idea Investments, LLC  ",Collin,Texas,United States,Explore,33.1031744,-96.6705503,48
1485,Red Ridge Partners  ,Decatur,Kansas,United States,Explore,39.7837304,-100.4458825,20
1487,Bullpen Investments  ,San Diego,California,United States,Search,32.7174202,-117.1627728,06
1488,King Hall ,New Hanover,North Carolina,United States,Search,34.2257282,-77.9447107,37
1490,Simetra Operator Fund  ,Wake,North Carolina,United States,Search,35.7803977,-78.6390989,37
1491,"Sage Point Capital, LLC  ",New York,New York,United States,Explore,40.7127281,-74.0060152,36
1492,Craft Equity  ,New York,New York,United States,Search,40.7127281,-74.0060152,36
1494,JL Capital Group  ,Denver,Colorado,United States,Search,39.7392364,-104.9848623,08
1496,"McFarlin Partners, LLC  ",Travis,Texas,United States,Search,30.2711286,-97.7436995,48
1500,Carablu Capital  ,Chatham,North Carolina,United States,Search,35.6729639,-79.0392919,37
1501,Ti Leaf Capital  ,Providence,Rhode Island,United States,Search,41.8239891,-71.4128343,44
1502,Trego Partners  ,Mecklenburg,North Carolina,United States,Search,35.2272086,-80.8430827,37
1506,"Shepherd Pacific, LLC  ",King,Washington,United States,Explore,47.6038321,-122.3300624,53
1507,Epilogue Capital  ,San Diego,California,United States,Search,32.7174202,-117.1627728,06
1508,"BioZage, Inc  ",Ocean,New Jersey,United States,Explore,40.0757384,-74.4041622,34
1511,"Atlantic Avenue Capital, LLC  ",Palm Beach,Florida,United States,Search,26.715364,-80.0532942,12
1512,"JMTC, LLC  ",Nevada,California,United States,Search,39.327962,-120.1832533,06
1513,Four Guys Capital  ,Suffolk,Massachusetts,United States,Acquired,42.3602534,-71.0582912,25
1514,Monteagle Partners  ,Davidson,Tennessee,United States,Acquired,36.2206081,-86.69563733154433,47
1515,Southeast Acquisition Capital  ,Davidson,Tennessee,United States,Search,36.2206081,-86.69563733154433,47
1516,Center Element Capital  ,Davidson,Tennessee,United States,Search,36.2206081,-86.69563733154433,47
1518,Signal Hill  ,Spokane,Washington,United States,Explore,47.6571934,-117.4235106,53
1520,Private Investment Fund  ,Suffolk,Massachusetts,United States,Inactive,42.3602534,-71.0582912,25
1521,Libre Growth Partners  ,Miami-Dade,Florida,United States,Search,25.7741728,-80.19362,12
1522,G3B Capital  University of Rochester,Miami-Dade,Florida,United States,Inactive,25.7741728,-80.19362,12
1523,Terra Ridge Capital ,Bergen,New Jersey,United States,Search,40.8860164,-74.0072568,34
1524,"Mobius Holdings, LLC  ",New York,New York,United States,Search,40.7127281,-74.0060152,36
1526,NA  ,Mecklenburg,North Carolina,United States,Explore,35.2272086,-80.8430827,37
1528,Appalachian Partners  Cornell University - College of BusinessJustin Shuman,Philadelphia,Pennsylvania,United States,Explore,39.9527237,-75.1635262,42
1529,HH Capital  ,Cook,Illinois,United States,Search,41.9380405,-87.6666557,17
1530,Simple Pro Ventures  ,Jefferson,Alabama,United States,Search,33.5206824,-86.8024326,01
1532,The Gallowae Group  ,New Haven,Connecticut,United States,Inactive,41.29843435,-72.93102342707913,09
1534,"Dill Holdings, LLC  ",York,Pennsylvania,United States,Explore,40.1109413,-77.0358059,42
1535,RiverRun Capital LLC  ,San Diego,California,United States,Search,32.7174202,-117.1627728,06
1537,Bay Investment Partners  ,San Francisco,California,United States,Inactive,37.7790262,-122.419906,06
1538,Sable Pass LLC  ,Suffolk,Massachusetts,United States,Search,42.3602534,-71.0582912,25
1539,General Pacific Capital  ,Blaine,Idaho,United States,Search,43.519629,-114.315325,16
1540,Canyonlands Funds  ,New York,New York,United States,Explore,40.7127281,-74.0060152,36
1541,Vinchess Investors  ,Dallas,Texas,United States,Search,32.7762719,-96.7968559,48
1543,CCS Capital  ,Middlesex,Massachusetts,United States,Raise,42.3750997,-71.1056157,25
1544,Deodora Capital Partners  ,Santa Clara,California,United States,Search,37.4443293,-122.1598465,06
1545,"Maryville Crest, LLC  ",New York,New York,United States,Search,40.7127281,-74.0060152,36
1546,ElevTrust Capital  ,San Diego,California,United States,Raise,32.7174202,-117.1627728,06
1548,Leonis Partners  ,Fulton,Georgia,United States,Inactive,33.7489924,-84.3902644,13
1549,Willow Crest Capital  ,Dallas,Texas,United States,Search,32.7762719,-96.7968559,48
1550,Bromegrass Capital  ,Jackson,Missouri,United States,Search,39.100105,-94.5781416,29
1551,High Aspect  ,Salt Lake,Utah,United States,Search,40.7596198,-111.8867975,49
1552,Steadfast Horizon  ,Clark,Nevada,United States,Search,36.1672559,-115.148516,32
1553,Blue Ridge  ,New York,New York,United States,Search,40.7127281,-74.0060152,36
1554,"Steep Stone, LLC  ",Middlesex,Massachusetts,United States,Raise,42.3750997,-71.1056157,25
1555,Alamar Partners  ,Santa Barbara,California,United States,Search,34.4221319,-119.7026673,06
1556,Line 21 Capital  ,Polk,Florida,United States,Search,27.7567667,-81.4639835,12
1557,PW Acquisitions LLC  ,New York,New York,United States,Explore,40.7127281,-74.0060152,36
1558,Bowhead Capital  ,Suffolk,Massachusetts,United States,Inactive,42.3602534,-71.0582912,25
1559,Penn Cove LLC  ,Suffolk,Massachusetts,United States,Search,42.3602534,-71.0582912,25
1560,Ripple Ventures  ,Polk,Florida,United States,Explore,27.7567667,-81.4639835,12
1562,The HRJ Company  ,Dallas,Texas,United States,Explore,32.7762719,-96.7968559,48
1563,Sharpened Iron Capital  ,Cabarrus,North Carolina,United States,Acquired,35.4094178,-80.5800049,37
1564,Laika Legacy  ,Durham,North Carolina,United States,Search,35.996653,-78.9018053,37
1565,"Republic Square, LLC  ",Travis,Texas,United States,Search,30.2711286,-97.7436995,48
1567,Blue Guard Capital  ,New York,New York,United States,Search,40.7127281,-74.0060152,36
1568,Amerigo Capital  ,Orange,California,United States,Inactive,33.6856969,-117.8259819,06
1570,Hunter Trust  ,Travis,Texas,United States,Search,30.2711286,-97.7436995,48
1571,MPower Industries  ,Fulton,Georgia,United States,Search,33.7489924,-84.3902644,13
1572,Prairie Fire Partners  ,Johnson,Kansas,United States,Search,38.9742502,-94.6851702,20
1575,Mercure Capital  ,Middlesex,Massachusetts,United States,Search,42.3750997,-71.1056157,25
1576,The Foss Mountain Company  ,San Diego,California,United States,Raise,32.7174202,-117.1627728,06
1577,Shunga Trails  ,Dallas,Texas,United States,Search,32.7762719,-96.7968559,48
1578,TrustTree  ,Dallas,Texas,United States,Explore,32.7762719,-96.7968559,48
1579,Danville Capital LLC  INSEAD,San Mateo,California,United States,Inactive,37.496904,-122.3330573,06
1580,"Southern Equity Alpha Partners, LLC  ",Fulton,Georgia,United States,Search,33.7489924,-84.3902644,13
1581,Clypeum Capital  ,Sussex,Delaware,United States,Search,38.6920451,-75.4013315,10
1582,Ceannaire Capital  ,Allegheny,Pennsylvania,United States,Search,40.4416941,-79.9900861,42
1583,ESTC Equity  ,Travis,Texas,United States,Explore,30.2711286,-97.7436995,48
1584,Thoreau Group  ,New York,New York,United States,Inactive,40.7127281,-74.0060152,36
1587,Six Degree Search  ,San Diego,California,United States,Inactive,32.7174202,-117.1627728,06
1588,"North Canal Ventures, LLC  ",Suffolk,Massachusetts,United States,Search,42.3602534,-71.0582912,25
1589,Kensington Riverside Capital  Columbia University - Columbia Business School,New York,New York,United States,Inactive,40.7127281,-74.0060152,36
1590,HYTEN Partners  ,New York,New York,United States,Explore,40.7127281,-74.0060152,36
1592,Ludlow Capital,Hamilton,Ohio,United States,Search,39.1014537,-84.5124602,39
1593,Transition Strategy Management  ,DuPage,Illinois,United States,Explore,41.8994745,-87.9403418,17
1595,LeGrande Partners  ,Lake,Illinois,United States,Inactive,42.371614,-88.125016,17
1597,Park South Ventures  ,Mecklenburg,North Carolina,United States,Search,35.2272086,-80.8430827,37
1599,"Marble Arch, LLC  ",Kent,Delaware,United States,Search,39.158168,-75.5243682,10
1601,New Endurance Capital  ,Travis,Texas,United States,Search,30.2711286,-97.7436995,48
1602,Pergamon Management LLC  ,Washtenaw,Michigan,United States,Search,42.2681569,-83.7312291,26
1604,The Opportunity Collective  ,Pima,Arizona,United States,Search,32.2228765,-110.9748477,04
1606,Caribbean Agriculture ,Suffolk,Massachusetts,United States,Explore,42.3602534,-71.0582912,25
1607,Reciprocity Capital  ,San Francisco,California,United States,Explore,37.7790262,-122.419906,06
1608,BGD Independent  ,Camden,New Jersey,United States,Explore,39.8915022,-75.0376707,34
1609,Kremena Capital  ,New York,New York,United States,Explore,40.7127281,-74.0060152,36
1610,Patriot Investment Partners  ,Brevard,Florida,United States,Search,28.106471,-80.6371513,12
1612,Arisun Consolidated  ,Dallas,Texas,United States,Search,32.7762719,-96.7968559,48
1613,ML Square  ,Cook,Illinois,United States,Explore,41.9380405,-87.6666557,17
1614,The Elens Group LLC  ,Harris,Texas,United States,Explore,29.7589382,-95.3676974,48
1615,Blue Vista LLC  ,Denver,Colorado,United States,Search,39.7392364,-104.9848623,08
1618,35 North Capital  ,Johnson,Kansas,United States,Search,38.9742502,-94.6851702,20
1619,Omberg LLC  ,Suffolk,Massachusetts,United States,Search,42.3602534,-71.0582912,25
1622,"Free Horizon Capital, LLC  ",Tarrant,Texas,United States,Search,32.9337381,-97.0788754,48
1630,Legacy Growth LLC,Cook,Illinois,United States,Search,41.9380405,-87.6666557,17
1631,Generational Transfer Entrepreneurs - Joseph Hall  ,Allegheny,Pennsylvania,United States,Search,40.4416941,-79.9900861,42
1633,Centurion Ventures Capital LLC  ,New York,New York,United States,Search,40.7127281,-74.0060152,36
1634,Cumbria Capital  ,King,Washington,United States,Search,47.6038321,-122.3300624,53
1635,Markin Capital LLC  ,Milwaukee,Wisconsin,United States,Search,43.0349931,-87.922497,55
1636,Serious Capital  ,San Mateo,California,United States,Search,37.4863239,-122.232523,06
1638,LaunchbyDSC  ,Centre,Pennsylvania,United States,Raise,40.9699889,-77.7278831,42
1639,Saltire LLC  ,Miami-Dade,Florida,United States,Search,25.7741728,-80.19362,12
1642,Vault Key Enterprises  ,Middlesex,Massachusetts,United States,Inactive,42.3750997,-71.1056157,25
1643,Reese Investment Group  ,Shelby,Tennessee,United States,Search,35.1490215,-90.0516285,47
1646,Warren Street Capital LLC  ,Choctaw,Alabama,United States,Explore,31.9868295,-88.33308822099423,01
1647,"Fair Winds Capital, LLC  ",New York,New York,United States,Search,40.7127281,-74.0060152,36
1648,Ellery Group Holdings LLC  ,Middlesex,Massachusetts,United States,Inactive,42.3750997,-71.1056157,25
1649,Arbor Bay Partners,Dallas,Texas,United States,Search,32.7762719,-96.7968559,48
1651,Woodport Holdings  ,New York,New York,United States,Search,40.7127281,-74.0060152,36
1652,Red Letter Capital LLC  ,Muscogee,Georgia,United States,Search,32.4610708,-84.9880449,13
1653,Arzoo Care  ,Philadelphia,Pennsylvania,United States,Inactive,39.9527237,-75.1635262,42
1655,"JHMacon Capital, LLC  ",Cook,Illinois,United States,Search,41.9380405,-87.6666557,17
1656,"Strongpoint Ridge, LLC  ",Denver,Colorado,United States,Search,39.7392364,-104.9848623,08
1658,Little River Partners LLC  ,Fulton,Georgia,United States,Search,33.7489924,-84.3902644,13
1659,Allen Range Capital  ,San Francisco,California,United States,Search,37.7790262,-122.419906,06
1661,Carysfort Partners  ,Suffolk,New York,United States,Search,40.8602595,-73.44766339737177,36
1662,Nordic Rock Capital  ,King,Washington,United States,Search,47.6038321,-122.3300624,53
1664,SOUTHERN CAP PARTNERS  ,Fulton,Georgia,United States,Search,33.7489924,-84.3902644,13
1665,Tsetserra Growth Partners  ,Travis,Texas,United States,Search,30.2711286,-97.7436995,48
1666,Spur Acquisitions  ,Denver,Colorado,United States,Search,39.7392364,-104.9848623,08
1667,MERIDIAN GROWTH PARTNERS  ,Arapahoe,Colorado,United States,Explore,39.574779,-104.884747,08
1669,Abundant Culture Fund ,Cook,Illinois,United States,Raise,41.9380405,-87.6666557,17
1670,Smithgall Next Step  ,Fulton,Georgia,United States,Search,33.7489924,-84.3902644,13
1671,Continuum Equity Fund  ,Hudson,New Jersey,United States,Raise,40.7215682,-74.047455,34
1672,Q-Bank Group  ,Fairfield,Connecticut,United States,Search,41.0264862,-73.6284598,09
1675,Denizen Capital  Carnegie Mellon University - Tepper School of Business,Allegheny,Pennsylvania,United States,Inactive,40.4416941,-79.9900861,42
1676,Orchardview LLC  ,Philadelphia,Pennsylvania,United States,Search,39.9527237,-75.1635262,42
1677,Tolman Consulting  ,Cook,Illinois,United States,Search,41.8755616,-87.6244212,17
1678,Delta Trail Capital LLC  ,Allegheny,Pennsylvania,United States,Search,40.4416941,-79.9900861,42
1679,Eagle Capital Growth Partners  The University of Chicago - Booth School of Business,Hamilton,Ohio,United States,Search,39.1014537,-84.5124602,39
1680,Stone Spire Capital  ,Jackson,Missouri,United States,Search,39.100105,-94.5781416,29
1682,Flagstone Heritage  ,Wake,North Carolina,United States,Search,35.7803977,-78.6390989,37
1684,1620 Adventurers  ,Summit,Utah,United States,Explore,40.6460635,-111.4979741,49
1685,The Legacy Group  ,Tarrant,Texas,United States,Search,32.753177,-97.3327459,48
1686,Innovature Capital  Liberty UniversityTonya Lee,Fulton,Georgia,United States,Search,33.7489924,-84.3902644,13
1687,"Tiber Equity Partners, LLC  ",Fulton,Georgia,United States,Inactive,33.7489924,-84.3902644,13
1688,Baldwin Capital Partners  ,Boone,Indiana,United States,Search,39.950724,-86.2616968,18
1690,Greencove Capital Partners  ,Jefferson,Colorado,United States,Search,39.755543,-105.221099,08
1692,Rose Hill  ,Salt Lake,Utah,United States,Search,40.7596198,-111.8867975,49
1693,"Jasper Browne, LLC  ",Hamilton,Ohio,United States,Raise,39.1014537,-84.5124602,39
1695,"Causeway Succession, LLC  ",Harris,Texas,United States,Search,29.7589382,-95.3676974,48
1701,Alta Lake Equity Partners  ,New York,New York,United States,Search,40.7127281,-74.0060152,36
1702,Desert Springs Capital  ,San Francisco,California,United States,Inactive,37.7790262,-122.419906,06
1703,Kitty Hawk Partners,Sussex,Delaware,United States,Inactive,38.6920451,-75.4013315,10
1704,Global AI Internet Freedom Fund LP  ,Prince Edward,Virginia,United States,Raise,37.1232245,-78.4927721,51
1707,Seven Pine Capital  ,Dallas,Texas,United States,Search,32.7762719,-96.7968559,48
1710,Unicode Capital  ,San Diego,California,United States,Search,32.7174202,-117.1627728,06
1715,Rue Racine Capital Partners,San Francisco,California,United States,Raise,37.7790262,-122.419906,06
1716,Full Sail Capital  ,Fulton,Georgia,United States,Search,33.7489924,-84.3902644,13
1719,Succession Coast Capital,Carteret,North Carolina,United States,Explore,34.665333,-77.0382549,37
1720,Bellwether Capital Partners  ,Philadelphia,Pennsylvania,United States,Search,39.9527237,-75.1635262,42
1723,Self Funded  ,Travis,Texas,United States,Explore,30.2711286,-97.7436995,48
1724,Succession Coast Capital  ,Carteret,North Carolina,United States,Search,34.665333,-77.0382549,37
1725,Eagle Claw Investments LLC  ,Allegheny,Pennsylvania,United States,Inactive,40.4416941,-79.9900861,42
1726,Bastion Capital  ,Fulton,Georgia,United States,Search,33.7489924,-84.3902644,13
1729,Fairway Transitions  ,San Francisco,California,United States,Search,37.7790262,-122.419906,06
1730,Erdoni LLC  ,Suffolk,Massachusetts,United States,Search,42.3602534,-71.0582912,25
1731,Ocean Trail Partners  ,Suffolk,Massachusetts,United States,Search,42.3602534,-71.0582912,25
1734,Platinum Lakes Capital  ,Cook,Illinois,United States,Explore,41.9380405,-87.6666557,17
1735,Venice Hudson  ,New York,New York,United States,Search,40.7127281,-74.0060152,36
1736,Roliston LLC  ,Suffolk,Massachusetts,United States,Search,42.3602534,-71.0582912,25
1737,Persevia  ,Harris,Texas,United States,Raise,29.7589382,-95.3676974,48
1740,Casparis  ,Suffolk,Massachusetts,United States,Search,42.3602534,-71.0582912,25
1741,Alhambra Growth Partners  ,Lake,Illinois,United States,Search,42.371614,-88.125016,17
1742,Copper Orchid Capital  ,Cook,Illinois,United States,Search,41.9380405,-87.6666557,17
1743,Drup Ventures  ,Burleson,Texas,United States,Raise,30.4764878,-96.6353488,48
1744,Cox/Grimes  ,Wake,North Carolina,United States,Search,35.7803977,-78.6390989,37
1746,Penn Livingston & Co LLC  ,Orleans Parish,Louisiana,United States,Search,29.9499323,-90.0701156,22
1747,Nemean Capital  ,New York,New York,United States,Raise,40.7127281,-74.0060152,36
1748,Palmbrook Capital  ,Durham,North Carolina,United States,Search,35.996653,-78.9018053,37
1750,"Iconic Financial Holdings, LLC  ",Harris,Texas,United States,Raise,29.7589382,-95.3676974,48
1751,"Seph Acquisitions, LLC",Providence,Rhode Island,United States,Search,41.7962409,-71.5992372,44
1752,Tree Water Cap  ,New York,New York,United States,Explore,40.7127281,-74.0060152,36
1753,Natural Bridge Capital  The University of North Carolina at Chapel Hill - Kenan-Flagler Business School,Chatham,North Carolina,United States,Inactive,35.6729639,-79.0392919,37
1754,Delphis Capital  Stanford University - Graduate School of Business,Santa Clara,California,United States,Inactive,37.3361905,-121.890583,06
1755,Atlantic Growth Partners  ,New York,New York,United States,Inactive,40.7127281,-74.0060152,36
1757,Mitchell Street Capital  ,Santa Clara,California,United States,Search,37.3361905,-121.890583,06
1758,Consultant at McKinsey & Company  ,Fulton,Georgia,United States,Explore,33.7489924,-84.3902644,13
1761,"Denver Growth Partners, LLC  Harvard University - Harvard Business School",Denver,Colorado,United States,Inactive,39.7392364,-104.9848623,08
1764,AEOLA Health Solutions  ,Broward,Florida,United States,Search,25.9873137,-80.2322706,12
1765,Bold Bridge Capital  ,Travis,Texas,United States,Search,30.2711286,-97.7436995,48
1768,Creo  ,New York,New York,United States,Explore,40.7127281,-74.0060152,36
1770,Aldrich Holdings  ,Madison,Alabama,United States,Search,34.729847,-86.5859011,01
1771,Kingsway CAP II  ,Fulton,Georgia,United States,Search,33.7489924,-84.3902644,13
1774,Crestone Analytics  ,Denver,Colorado,United States,Search,39.7392364,-104.9848623,08
1775,Brackenwell LLC  ,Lamoille,Vermont,United States,Explore,44.5990718,-72.5002608,50
1777,Big Cove  ,Fulton,Georgia,United States,Search,33.7489924,-84.3902644,13
1778,Ferrite Capital  ,Wayne,Michigan,United States,Search,42.3315509,-83.0466403,26
1780,NextGen Growth Partners  ,Cook,Illinois,United States,Search,41.9380405,-87.6666557,17
1783,Crete Mechanical Group  ,New York,New York,United States,Explore,40.7127281,-74.0060152,36
1784,Shoreline Growth Capital  ,Hennepin,Minnesota,United States,Inactive,44.9772995,-93.2654692,27
1785,Agape Capital  ,Dallas,Texas,United States,Inactive,32.8295183,-96.9442177,48
1786,"One In A Row Ventures, LLC  ",Escambia,Florida,United States,Search,30.421309,-87.2169149,12
1787,Evergreen Growth Partners  ,San Mateo,California,United States,Search,37.5600336,-122.2688522,06
1789,Restaurant Acquisition Partners  ,Miami-Dade,Florida,United States,Search,25.7741728,-80.19362,12
1791,Providence Friends Capital (HWI Partners - Search Fund II)  ,Philadelphia,Pennsylvania,United States,Inactive,39.9527237,-75.1635262,42
1792,"Summer Mornings Legacy Partners, LLC  ",Allegheny,Pennsylvania,United States,Search,40.4416941,-79.9900861,42
1793,Glen Highlands Partners  ,San Francisco,California,United States,Search,37.7790262,-122.419906,06
1794,Dynamis Capital  ,Wake,North Carolina,United States,Search,35.7803977,-78.6390989,37
1800,Tychus & Ed Capital LLC  ,Sussex,Delaware,United States,Explore,38.6920451,-75.4013315,10
1802,Architectural / Engineering Services  ,Polk,Florida,United States,Explore,27.7567667,-81.4639835,12
1803,"Faircrest Capital, LLC  Stanford University - Graduate School of Business",King,Washington,United States,Inactive,47.5348778,-122.0432974,53
1804,Equyti Capital  ,Travis,Texas,United States,Raise,30.2711286,-97.7436995,48
1805,Icosian Capital  ,Dallas,Texas,United States,Search,32.7762719,-96.7968559,48
1806,Braxos Capital  Stanford University - Graduate School of Business,Milwaukee,Wisconsin,United States,Inactive,43.0349931,-87.922497,55
1807,Hardwood Hollow  ,Hinds,Mississippi,United States,Search,32.2990384,-90.1847691,28
1809,Crownstar Capital Partners  ,New York,New York,United States,Search,40.7127281,-74.0060152,36
1811,"Birch Heritage Partners, LLC  ",Cook,Illinois,United States,Search,41.9380405,-87.6666557,17
1812,Pacific Growth Partners  Stanford University - Graduate School of Business,Santa Clara,California,United States,Inactive,37.4443293,-122.1598465,06
1813,Mayborn Capital  ,Dallas,Texas,United States,Search,32.7762719,-96.7968559,48
1814,DVP Capital  ,Hennepin,Minnesota,United States,Raise,44.9772995,-93.2654692,27
1815,Avneet  ,Union,New Jersey,United States,Raise,40.6723242,-74.3573722,34
1816,Goldmatch Capital Partners  ,Dallas,Texas,United States,Acquired,32.7762719,-96.7968559,48
1817,"Birch Heritage Partners, LLC  ",Cook,Illinois,United States,Search,41.9380405,-87.6666557,17
1820,Icosian Capital  ,Dallas,Texas,United States,Search,32.7762719,-96.7968559,48
1821,"1912 Capital  Indiana University, Bloomington/Indianapolis - Kelley School of Business",Maricopa,Arizona,United States,Explore,33.4484367,-112.0741417,04
1822,Peepal Tree Capital  ,Hudson,New Jersey,United States,Search,40.7433066,-74.0323752,34
1823,"OsCarKeyClub, LLC - Classic Car Fund sponsored by AutoMaximizer, Inc.  ",Luzerne,Pennsylvania,United States,Explore,41.2789699,-75.8782519,42
1824,"Washington Square Capital, LLC  ",New York,New York,United States,Search,40.7127281,-74.0060152,36
1825,Estelio Partners  ,Santa Clara,California,United States,Search,37.4443293,-122.1598465,06
1828,Brighton Square  ,Hennepin,Minnesota,United States,Explore,44.9772995,-93.2654692,27
1830,Golden Search Fund  ,New York,New York,United States,Search,40.7127281,-74.0060152,36
1833,One North Holdings  ,Centre,Pennsylvania,United States,Search,40.9699889,-77.7278831,42
1834,"Aber Capital Group, LLC  ",Cuyahoga,Ohio,United States,Search,41.5051613,-81.6934446,39
1835,iGOTHAM Capital  ,New York,New York,United States,Search,40.7127281,-74.0060152,36
1836,Summers Advisory Capital  ,Multnomah,Oregon,United States,Explore,45.5202471,-122.6741949,41
1837,"Arnell Capital, LLC  ",Suffolk,Massachusetts,United States,Search,42.3602534,-71.0582912,25
1838,Fortaleza Capital Group  ,Miami-Dade,Florida,United States,Inactive,25.7929198,-80.1353006,12
1839,BuyFamCo  ,Hartford,Connecticut,United States,Search,41.7620447,-72.7420399,09
1840,CULPER LEGACY CAPITAL  ,Madison,New York,United States,Explore,43.1561681,-75.8449946,36
1842,Interro Partners  ,Cook,Illinois,United States,Search,41.9380405,-87.6666557,17
1843,Helios Growth LLC  ,Palm Beach,Florida,United States,Search,26.6279798,-80.4494174,12
1844,NC Small Business Buyers  ,Wake,North Carolina,United States,Search,35.7803977,-78.6390989,37
1845,Quinten Capital  ,New York,New York,United States,Search,40.7127281,-74.0060152,36
1846,"Four Leaf Company, LLC  Stanford University - Graduate School of Business",Dallas,Texas,United States,Inactive,32.7762719,-96.7968559,48
1847,West End Capital Partners  ,Cook,Illinois,United States,Search,41.9380405,-87.6666557,17
1848,40E Capital,Cook,Illinois,United States,Explore,41.9380405,-87.6666557,17
1850,BE Capital  ,New York,New York,United States,Search,40.7127281,-74.0060152,36
1852,Revere Capital  University of Utah,Salt Lake,Utah,United States,Search,40.7596198,-111.8867975,49
1854,Steeful  ,Mecklenburg,North Carolina,United States,Search,35.2272086,-80.8430827,37
1855,Sajama  ,San Francisco,California,United States,Explore,37.7790262,-122.419906,06
1857,Newbury Franklin Software  ,Grafton,New Hampshire,United States,Search,43.703622,-72.288666,33
1858,Towanda Capital LLC  ,Knox,Tennessee,United States,Inactive,35.9603948,-83.9210261,47
1859,Meadows Lane Capital  ,New York,New York,United States,Explore,40.7127281,-74.0060152,36
1860,Southport Ventures  ,Cook,Illinois,United States,Search,41.9380405,-87.6666557,17
1861,Omena Capital  ,Oakland,Michigan,United States,Inactive,42.4894801,-83.1446485,26
1862,Serra Hill  ,Suffolk,Massachusetts,United States,Search,42.3602534,-71.0582912,25
1863,Transition Leadership Capital  ,Bexar,Texas,United States,Search,29.4246002,-98.4951405,48
1866,Corsair Pacific Capital LLC  Stanford University,New York,New York,United States,Search,40.7127281,-74.0060152,36
1869,JJD Acquisition LLC  ,Philadelphia,Pennsylvania,United States,Search,39.9527237,-75.1635262,42
1871,Krasnov Management Company  ,Harris,Texas,United States,Explore,29.7589382,-95.3676974,48
1872,Cuesta Legacy  ,Tulsa,Oklahoma,United States,Search,36.1556805,-95.9929113,40
1876,Utah Capital Partners  ,Sanpete,Utah,United States,Search,39.4225192,-111.714358,49
1878,White Mountain Acquisition  ,Travis,Texas,United States,Search,30.2711286,-97.7436995,48
1879,Western Square LLC  ,Suffolk,Massachusetts,United States,Search,42.3602534,-71.0582912,25
1880,Promise33  ,Cuyahoga,Ohio,United States,Search,41.5051613,-81.6934446,39
1882,Hinge Ventures  ,Tulare,California,United States,Inactive,36.7014631,-118.755997,06
1883,ThreeHill Capital Partners  ,Suffolk,Massachusetts,United States,Raise,42.3602534,-71.0582912,25
1886,Blacktop Equity Partners  ,Denver,Colorado,United States,Search,39.7392364,-104.9848623,08
1887,Navalper LLC  ,Suffolk,Massachusetts,United States,Search,42.3602534,-71.0582912,25
1888,ADSC  ,San Francisco,California,United States,Raise,37.7790262,-122.419906,06
1891,Hudson Yards Capital  ,New York,New York,United States,Search,40.7127281,-74.0060152,36
1894,Fifth Block  ,Snohomish,Washington,United States,Search,47.7909667,-122.3066395,53
1895,Locke River  ,Travis,Texas,United States,Search,30.2711286,-97.7436995,48
1896,Filion Capital  ,Dallas,Texas,United States,Raise,32.7762719,-96.7968559,48
1897,Evan Searcher  ,Montgomery,Maryland,United States,Explore,39.1759524,-77.26029701671686,24
1898,Stonewall Equity Partners  ,Loudoun,Virginia,United States,Inactive,39.0300191,-77.46964646557657,51
1899,Safiyah Partners  ,San Diego,California,United States,Search,33.2828142,-116.8633581,06
1901,Ridgemont Street Capital  ,Dallas,Texas,United States,Raise,32.7762719,-96.7968559,48
1902,Ajayi Venture Capital  ,Fulton,Georgia,United States,Explore,33.7489924,-84.3902644,13
1903,Nu-Alpha Capital  ,New York,New York,United States,Raise,40.7127281,-74.0060152,36
1904,Mount Berico Capital  ,Suffolk,Massachusetts,United States,Search,42.3602534,-71.0582912,25
1905,The Staverton Group  ,Faulkner,Arkansas,United States,Search,35.2048883,-92.4479108,05
1906,"Blue Dog Hill, LLC  ",New York,New York,United States,Search,40.7127281,-74.0060152,36
1908,Novastone Capital Advisors (NCA)  ,New York,New York,United States,Search,40.7127281,-74.0060152,36
1912,Summerlakes  ,New York,New York,United States,Explore,40.7127281,-74.0060152,36
1913,B Media  ,New York,New York,United States,Explore,40.7127281,-74.0060152,36
1915,Saga Growth Partners  ,Cook,Illinois,United States,Explore,41.8755616,-87.6244212,17
1916,Sophia Partners LLC  ,San Francisco,California,United States,Inactive,37.7790262,-122.419906,06
1917,Windhill Capital LLC  ,Merrimack,New Hampshire,United States,Search,43.4849133,-71.6553992,33
1919,ArcForty  ,Santa Clara,California,United States,Search,37.4443293,-122.1598465,06
1920,Schooner Group Holdings LLC  ,Suffolk,Massachusetts,United States,Search,42.3602534,-71.0582912,25
1921,"Diapente Capital, LLC  ",Coleman,Texas,United States,Search,31.8160381,-99.5120986,48
1923,Pearson Coast Capital  ,Dutchess,New York,United States,Search,41.7065539,-73.9283672,36
1924,Springer Lake Capital  ,Wake,North Carolina,United States,Raise,35.7803977,-78.6390989,37
1925,"Maia Growth Capital, LLC  ",Denver,Colorado,United States,Search,39.7392364,-104.9848623,08
1928,Michael Black Search Fund (formation date is approximate)  ,King,Washington,United States,Inactive,47.6038321,-122.3300624,53
1931,"Golden Eagle Capital Partners, LLC",Cook,Illinois,United States,Explore,41.9380405,-87.6666557,17
1933,Heritage Holding  ,Suffolk,Massachusetts,United States,Explore,42.3602534,-71.0582912,25
1934,Arbor Lane Capital Partners LLC  ,Cook,Illinois,United States,Search,41.9380405,-87.6666557,17
