Name,Address,Latitude,Longitude
Huntsville,"2501 Memorial Pkwy SW, Huntsville, AL 35801",34.71229825,-86.58983215384391
Mobile,"3968 Airport Blvd, Mobile, AL 36608",30.680691,-88.195681
Montgomery,"1450 Taylor Rd, Montgomery, AL 36117",32.358581462393666,-86.17144509112775
Fayetteville,"3425 N College Ave, Fayetteville, AR 72703",36.11363085,-94.14649720483264
Bowman,"501 S Bowman Rd, Little Rock, AR 72211",34.750344,-92.40559245737485
Flagstaff,"320 S Cambridge Ln, Flagstaff, AZ 86001",35.191674851062075,-111.64144339607813
Camelback,"4701 N 20th St, Phoenix, AZ 85016",33.5063375,-112.0376785
Paradise Valley,"10810 N Tatum Blvd, Phoenix, AZ 85028",33.585025,-111.97919669103455
Scottsdale,"7111 E Mayo Blvd, Phoenix, AZ 85054",33.6636983,-111.9574583
Chandler,"2955 W Ray Rd, Chandler, AZ 85224",33.3185139,-111.8927867
Oracle,"7133 N Oracle Rd, Tucson, AZ 85704",32.3011878,-110.9785625
Speedway,"3360 E Speedway Blvd, Tucson, AZ 85716",32.2361226,-110.925463
River Road,"5555 E River Rd, Tucson, AZ 85750-1949",32.2964349,-110.9718608
Palo Alto,"774 Emerson St, Palo Alto, CA 94301",37.442386799999994,-122.15958998342347
Sunnyvale,"150 E. McKinley Ave., Sunnyvale, CA 94086",37.3738568,-122.030823
Cupertino,"20955 Stevens Creek Blvd, Cupertino, CA 95014",37.3235544,-122.03953786887914
Redwood City,"1250 Jefferson Ave, Redwood City, CA 94062",37.48227655,-122.23167439104981
Fremont - California,"3111 Mowry Ave, Fremont, CA 94538-1505",37.550633,-121.9868358
San Mateo,"1010 Park Pl, San Mateo, CA 94403",37.54459687300059,-122.29271742482955
San Jose - on The Alameda,"777 The Alameda, San Jose, CA 95126",37.3332129,-121.9139272
Campbell,"1690 S Bascom Ave, Campbell, CA 95008",37.2929607,-121.930408
Los Gatos,"15980 Los Gatos Blvd, Los Gatos, CA 95032",37.236303272758896,-121.9627235155637
Blossom Hill,"1146 Blossom Hill Rd, San Jose, CA 95118",37.25048462792905,-121.87749422034453
Dublin CA,"5200 Dublin Blvd, Dublin, CA 94568",37.7058265,-121.88982051250271
San Ramon,"100 Sunset Dr, San Ramon, CA 94583",37.763335,-121.961134
Ocean,"1150 Ocean Ave, San Francisco, CA 94112",37.7237981,-122.4546813
Oakland,"230 Bay Pl, Oakland, CA 94612",37.8130861,-122.26070261515443
Potrero Hill,"450 Rhode Island St, San Francisco, CA 94107",37.7643298,-122.4027236
Noe Valley,"3950 24th St, San Francisco, CA 94114",37.75200165,-122.43090580218822
SoMa,"399 4th St, San Francisco, CA 94107",37.780937,-122.399652
2001 Market Street,"2001 Market St, San Francisco, CA 94114",37.7687435,-122.4270651
Haight Street,"690 Stanyan St, San Francisco, CA 94117",37.7695612,-122.45286187653201
Santa Cruz,"911 Soquel Ave, Santa Cruz, CA 95062",36.97813968207094,-122.01392480031336
Franklin,"1765 California St, San Francisco, CA 94109",37.7900899,-122.4234142
Berkeley,"3000 Telegraph Ave, Berkeley, CA 94705",37.8554096,-122.2598064
Capitola,"1710 41st Ave, Capitola, CA 95010",36.9742625,-121.9635827
Lafayette,"3502 Mt Diablo Blvd, Lafayette, CA 94549",37.89240158444754,-122.11667414197319
Walnut Creek,"1333 Newell Ave, Walnut Creek, CA 94596",37.893503,-122.05575
Gilman,"1025 Gilman St, Berkeley, CA 94710",37.880765350000004,-122.29770755363317
Ygnacio Valley Road,"2941 Ygnacio Valley Rd, Walnut Creek, CA 94598",37.9259352,-122.0153822
Mill Valley,"414 Miller Ave, Mill Valley, CA 94941",37.896319513315106,-122.5358494333476
Blithedale,"731 E Blithedale Ave, Mill Valley, CA 94941",37.902045853964715,-122.52475676867519
San Rafael,"340 3rd St, San Rafael, CA 94901",37.970670524932856,-122.51700063554163
Novato,"790 De Long Ave, Novato, CA 94945",38.1058658,-122.566106
Monterey,"800 Del Monte Center, Monterey, CA 93940",36.6007933,-121.8691196
Sonoma,"201 W Napa St, Sonoma, CA 95476",38.2909642,-122.4625935
Napa,"3682 Bel Aire Plaza, Napa, CA 94558",38.323102081543425,-122.30723225307325
Petaluma,"621 E Washington St, Petaluma, CA 94952",38.2408045505112,-122.63373031547472
Santa Rosa,"1181 Yulupa Ave, Santa Rosa, CA 95405",38.4423771,-122.6745134
Coddingtown,"390 Coddingtown Mall, Santa Rosa, CA 95401",38.45736825,-122.7295700642448
Sacramento,"4315 Arden Way, Sacramento, CA 95864",38.596522050000004,-121.36376974254297
Folsom,"270 Palladio Pkwy, Folsom, CA 95630",38.64881255,-121.1180849409318
Roseville,"1001 Galleria Blvd, Roseville, CA 95678",38.7570456,-121.2667552
Fresno,"650 W Shaw Ave, Fresno, CA 93704",36.8085373,-119.7977715
South Lake Tahoe,"3600 Lake Tahoe Blvd., South Lake Tahoe, CA 96150",38.947221,-119.96052
San Luis Obispo,"1531 Froom Ranch Way, San Luis Obispo, CA 93405",35.252196673469385,-120.68813046938776
Santa Barbara,"3761 State St, Santa Barbara, CA 93105",34.4403706,-119.7308897
Oxnard,"650 Town Center Dr, Oxnard, CA 93036",34.2402786,-119.179437
Valencia,"24130 Valencia Blvd, Santa Clarita, CA 91355",34.412931,-118.554629
Thousand Oaks,"740 North Moorpark Rd, Thousand Oaks, CA 91360-3705",34.1878067,-118.8734441
Porter Ranch,"20209 W Rinaldi St, Porter Ranch, CA 91326",34.2758974,-118.574574
Woodland Hills,"21347 Ventura Blvd, Woodland Hills, CA 91364",34.1687192,-118.6102023
Malibu,"23401 Civic Center Way, Malibu, CA 90265",34.03674,-118.687403
Sherman Oaks,"14311 Ventura Blvd, Sherman Oaks, CA 91423",34.15025166666667,-118.44417899999999
Burbank,"3401 W Olive Ave, Burbank, CA 91505",34.154213,-118.336975
Brentwood,"11737 San Vicente Blvd, Los Angeles, CA 90049",34.0578425,-118.3626734
Montana Avenue,"1425 Montana Ave, Santa Monica, CA 90403",34.0329143,-118.49474192920638
Westwood,"1050 S Gayley Ave, Los Angeles, CA 90024",34.06112430612245,-118.44713346938775
23rd & Wilshire Blvd,"2201 Wilshire Blvd, Santa Monica, CA 90403",34.0333283,-118.48128869352759
Santa Monica Pico,"2121 Cloverfield Blvd, Santa Monica, CA 90404",34.02202795657503,-118.46604427543338
Beverly Hills,"239 N Crescent Dr, Beverly Hills, CA 90210",34.0695404,-118.3985558
West Hollywood,"7871 Santa Monica Blvd, West Hollywood, CA 90046",34.090892473684214,-118.36083515789474
Venice,"225 Lincoln Blvd, Venice, CA 90291",34.0012423,-118.469738
West Los Angeles,"11666 National Blvd, Los Angeles, CA 90064",34.0315122,-118.4193096
3rd & Fairfax,"6350 W 3rd St, Los Angeles, CA 90036",34.07128954545455,-118.36037990909091
Glendale,"331 N Glendale Ave, Glendale, CA 91206",34.150525659784144,-118.24554566783831
Silver Lake,"2520 Glendale Blvd, Los Angeles, CA 90039",34.1165061,-118.262536
Playa Vista,"12746 W Jefferson Blvd, Playa Vista, CA 90094",33.9772337,-118.4165874
Arroyo,"465 S Arroyo Pkwy, Pasadena, CA 91105",34.13754398305085,-118.1474523898305
Downtown Los Angeles,"788 S Grand Ave, Los Angeles, CA 90017",34.0458779,-118.2576698
Plaza El Segundo,"760 S Sepulveda Blvd, El Segundo, CA 90245",33.9162805,-118.3958623
Redondo Beach,"405 N Pacific Coast Hwy, Redondo Beach, CA 90277",33.83630769948931,-118.3853538725654
Torrance,"2655 Pacific Coast Hwy, Torrance, CA 90505",33.79252355,-118.3310299902107
Upland,"2153 W Baseline Rd, Upland, CA 91784",34.12170067114094,-117.6916684966443
Brea,"3301 E Imperial Hwy, Brea, CA 92823",33.9112292,-117.8566802
Brookhurst,"10081 Adams Ave, Huntington Beach, CA 92646",33.6722881,-117.9765178
Jamboree,"2847 Park Ave, Tustin, CA 92782",33.7039957,-117.8158737
Newport Beach,"415 Newport Center Dr, Newport Beach, CA 92660",33.61426418314492,-117.87290437645065
Irvine,"8525 Irvine Center Dr, Irvine, CA 92618",33.6625512,-117.7541237
Laguna Beach,"283 Broadway St, Laguna Beach, CA 92651",33.5440994,-117.78372579101855
Laguna Niguel,"23932 Aliso Creek Rd, Laguna Niguel, CA 92677",33.5544642,-117.71258542772591
La Jolla,"8825 Villa La Jolla Dr, La Jolla, CA 92037",32.8686951,-117.23055405714925
Hillcrest,"711 University Ave, San Diego, CA 92103",32.747959,-117.158052
Pikes Peak,"7635 N Academy Blvd, Colorado Springs, CO 80920-3207",38.94211405,-104.79734661217883
Frisco,"261 Lusher Ct, Frisco, CO 80443",39.5903584,-106.0971929
Ideal Market Boulder,"1275 Alpine Ave, Boulder, CO 80304",40.025998,-105.28077983562443
Pearl,"2905 Pearl St, Boulder, CO 80301",40.0240242,-105.255938
Boulder Table Mesa,"695 S Broadway, Boulder, CO 80305",39.9828904,-105.24838488031915
Colfax,"14357 W Colfax Ave, Golden, CO 80401",39.7293859,-105.1761999
Superior,"303 Marshall Rd, Superior, CO 80027",39.9565706,-105.16778441756651
Governor's Ranch,"5155 S Wadsworth Blvd, Littleton, CO 80123-2217",39.62308405,-105.09225809469271
Belmar,"444 S Wadsworth Blvd, Lakewood, CO 80226",39.70700688888889,-105.08138277777778
Bradburn,"4451 Main St, Westminster, CO 80031",39.9134679,-105.04463435401777
Union Station,"1701 Wewatta St, Denver, CO 80202",39.7546872,-105.0015488
Washington Park,"1111 S Washington St, Denver, CO 80210",39.69579855,-104.97982223256881
Ideal Market Denver,"900 E 11th Ave, Denver, CO 80218",39.7336113,-104.9762757
Fort Collins,"2201 S College Ave, Fort Collins, CO 80525",40.55905155000001,-105.07869250910412
Cherry Creek,"2375 E 1st Ave, Denver, CO 80206",39.718343246073196,-104.95834172251236
Colorado Blvd,"870 S Colorado Blvd, Glendale, CO 80246",39.700821,-104.9396533
Castle Rock,"6384 Promenade Pkwy, Castle Rock, CO 80108",39.4177254,-104.8778725
Greenwich,"90 E Putnam Ave, Greenwich, CT 06830",41.0330048,-73.6239727
Danbury,"5C Sugar Hollow Rd, Danbury, CT 06810",41.378545181633875,-73.4746124277316
Darien,"150 Ledge Rd, Darien, CT 06820",41.0731857,-73.4763454
Westport,"399 Post Rd W, Westport, CT 06880",41.1280951,-73.3801537
Fairfield,"350 Grasmere Ave, Fairfield, CT 06824",41.15828386813416,-73.24290323077102
Milford,"1686 Boston Post Road, Milford, CT 06460",41.2480279685732,-73.02479973606256
Bishops Corner,"340 N Main St, West Hartford, CT 06117",41.78308835383586,-72.74651743881263
West Hartford,"50 Raymond Rd, West Hartford, CT 06107",41.7608014,-72.7389451
Glastonbury,"55 Welles St, Glastonbury, CT 06033",41.7148499,-72.6077753
Destin,"4402 Legendary Dr, Destin, FL 32541",30.39366253122337,-86.42605128870966
Tallahassee,"1817 Thomasville Rd, Tallahassee, FL 32303",30.4630491,-84.2711326
Jacksonville,"10601 San Jose Blvd, Jacksonville, FL 32257",30.1852266,-81.6261802
Clearwater,"27001 US 19 N, Clearwater, FL 33761",28.0192626,-82.7380062
Jacksonville Beach,"2050 3rd St S, Jacksonville Beach, FL 32250",30.2702396,-81.3898624
Tampa,"1548 N Dale Mabry Hwy, Tampa, FL 33607",27.956129785714285,-82.50549607142858
Sarasota,"1451 1st St, Sarasota, FL 34236",27.33734251020408,-82.54164718367346
University Station,"5298 University Pkwy, Sarasota, FL 34243",27.388158,-82.463965
Winter Park North,"1030 N Orlando Ave, Winter Park, FL 32789",28.6067383,-81.3630981
Florida Avenue,"967 Florida Avenue NW, Washington, DC 20001",38.919888,-77.025239
West Palm Beach,"1845 Palm Beach Lakes Blvd, West Palm Beach, FL 33401",26.721086454545453,-80.08780227272727
Pembroke Pines,"14956 Pines Blvd, Pembroke Pines, FL 33027",26.007890881539367,-80.3469431488306
Delray Beach,"680 Linton Blvd, Delray Beach, FL 33444",26.43961695959596,-80.08000025252525
Davie,"1903 S University Dr, Davie, FL 33324",26.096884809677416,-80.25129007126267
Fort Lauderdale,"2000 N Federal Hwy, Fort Lauderdale, FL 33305",26.1370669,-80.1360112
17th Street,"501 SE 17th St, Fort Lauderdale, FL 33316",26.10039593797678,-80.13783453368649
Dadeland,"7930 SW 104th St, Miami, FL 33156",25.6734694,-80.323163
Aventura,"21105 Biscayne Blvd, Aventura, FL 33180",25.9711555,-80.1410709
Coral Gables,"6701 Red Rd, Coral Gables, FL 33143",25.709209,-80.285475
North Miami,"12150 Biscayne Blvd, North Miami, FL 33181",25.8879793,-80.1652927
Downtown Miami,"299 SE 3rd Ave, Miami, FL 33131",25.7722816,-80.1895294
South Beach,"1020 Alton Rd, Miami Beach, FL 33139",25.7810449,-80.1412102
Northside Buckhead,"3535 Northside Pkwy, Atlanta, GA 30327",33.8661896,-84.4525914
Sandy Springs,"5930 Roswell Rd, Atlanta, GA 30328",33.9178967,-84.3794785
Buckhead,"77 West Paces Ferry Rd NW, Atlanta, GA 30305",33.84088355,-84.38137364981958
Midtown Atlanta,"22 14th St NW, Atlanta, GA 30309",33.78617065,-84.388538883648
Avalon,"2800 Old Milton Pkwy, Alpharetta, GA 30009",34.0708931,-84.2941575
Ponce de Leon,"650 Ponce de Leon Ave NE, Atlanta, GA 30308",33.77377495,-84.36683650198435
Decatur,"1555 Church St, Decatur, GA 30033",40.823017,-93.607182
Maui,"70 E Kaahumanu Ave, Kahului, HI 96732",20.8903024,-156.4703027
Queen,"388 Kamakee St, Ste 100, Honolulu, HI 96814",21.2946062,-157.852479
West Des Moines,"4100 University Ave, West Des Moines, IA 50266",41.5997671,-93.7584185
Boise,"401 S Broadway Ave, Boise, ID 83702",43.6079837,-116.1944687
Wheaton,"89 Danada Square East, Wheaton, IL 60189",41.83035325,-88.10250277067159
Kildeer,"20281 Rand Rd, Kildeer, IL 60047",42.1843794,-88.0900199
Schaumburg,"750 N Martingale Rd, Schaumburg, IL 60173",42.042697798631735,-88.03555693925702
Vernon Hills,"851 N Milwaukee Ave, Vernon Hills, IL 60061",42.2411799,-87.94383818431828
Willowbrook,"6300 Kingery Hwy, Willowbrook, IL 60527",41.7486044,-87.9444375
Hinsdale,"500 E Ogden Ave, Hinsdale, IL 60521",41.8147983,-87.9293787
Deerfield,"760 Waukegan Rd, Deerfield, IL 60015",42.1662558,-87.8480579
Orland Park,"15260 South La Grange Road, Orland Park, IL 60462",41.6129589973479,-87.85344363613646
Park Ridge,"225 W Touhy Ave, Park Ridge, IL 60068",42.01094585,-87.82500649848697
River Forest,"7245 Lake St, River Forest, IL 60305",41.8874224,-87.8060739
Sauganash,"6020 N Cicero Ave, Chicago, IL 60646",41.9903578,-87.7486927
Green Bay Road,"2748 Green Bay Rd, Evanston, IL 60201",42.06798995,-87.70234444520102
Downtown Evanston,"1640 Chicago Ave, Evanston, IL 60201",42.04758755,-87.6795921400248
Evergreen Park,"9600 S Western Ave, Evergreen Park, IL 60805",41.7212555,-87.6821748
Lakeview,"3201 N. Ashland Ave, Chicago, IL 60657",41.940276499999996,-87.66802793500825
Chicago Edgewater,"6009 N Broadway, Chicago, IL 60660",41.99114715,-87.65967890454212
DePaul,"959 W Fullerton Ave, Chicago, IL 60614",41.9251419,-87.6532654
Lincoln Park,"1550 N Kingsbury St, Chicago, IL 60642",41.90871875,-87.65284006269653
Halsted and Waveland,"3640 N Halsted St, Chicago, IL 60613",41.94812911361918,-87.64962233673766
West Loop,"1 N Halsted St, Chicago, IL 60661",41.882239,-87.64686528786777
Englewood,"832 W 63rd St, Chicago, IL 60621",41.78067995,-87.64638415
Gold Coast,"30 W Huron St, Chicago, IL 60654",41.8950122,-87.6290969
Streeterville,"255 E Grand Ave, Chicago, IL 60611",41.8915969,-87.620825
Hyde Park,"5118 S Lake Park Ave, Chicago, IL 60615",41.8021505,-87.5880132
Schererville,"199 US-41, Schererville, IN 46375",41.52123963898725,-87.47124192844812
Mishawaka,"4230 Grape Rd, Mishawaka, IN 46545-1007",41.69872740201005,-86.18729933668342
Carmel,"14598 Clay Terrace Blvd, Carmel, IN 46032",39.999102050000005,-86.13109015483096
Kansas City,"301 E 51st St, Kansas City, MO 64112",39.034463,-94.5836061
Olathe," 14615 W 119th St, Olathe, KS 66062",38.9114558,-94.7565642
Overland Park,"6621 W 119th St, Overland Park, KS 66209",38.91276458946166,-94.66193016226323
Louisville,"4944 Shelbyville Rd, Louisville, KY 40207",38.2529601,-85.6558489
Lexington,"4059 Finn Way, Lexington, KY 40517",37.9777176,-84.52844543866132
Shreveport,"1380 E 70th St, Shreveport, LA 71105",32.443338139179616,-93.73103412247373
Ambassador Caffery,"4247 Ambassador Caffery Pkwy, Lafayette, LA 70508",30.1517043,-92.042524
Baton Rouge,"7529 Corporate Blvd, Baton Rouge, LA 70809",30.4322104,-91.1111575
Mandeville,"3450 Hwy 190, Mandeville, LA 70471",30.3924331,-90.0843061
Veterans,"3420 Veterans Memorial Blvd, Metairie, LA 70002",30.00317502684564,-90.1592147114094
Arabella Station,"5600 Magazine St, New Orleans, LA 70115",29.9207788,-90.11766331965342
Broad Street,"300 N Broad St, New Orleans, LA 70119",29.96707525,-90.08444484887477
Hadley,"327 Russell St, Hadley, MA 01035",42.355212,-72.55578733333333
Shrewsbury,"193 Boston Turnpike, Shrewsbury, MA 01545",42.2754245,-71.7466500030026
Westford,"160 Littleton Rd, Westford, MA 01886",42.56848545,-71.41969014716085
Sudbury,"536 Boston Post Rd, Sudbury, MA 01776",42.3614698,-71.43196501732973
Framingham,"575 Worcester Rd, Framingham, MA 01701",42.2987226,-71.4209794
Bellingham,"255 Hartford Ave, Bellingham, MA 02019",42.1112511,-71.4616014
Bedford,"170 Great Road, Bedford, MA 01730",42.490954200000004,-71.27301305925366
Wellesley,"442 Washington St, Wellesley, MA 02482",42.3025946,-71.28551648637051
Andover,"40 Railroad St, Andover, MA 01810",42.660901249999995,-71.14467599082239
Newton,"916 Walnut St, Newton, MA 02461",42.329982349999995,-71.20632490004982
Newtonville,"647 Washington St, Newton, MA 02458",42.3564807,-71.188317
Woburn,"400 Cambridge Rd, Woburn, MA 01801",42.46045595,-71.1636061420675
Arlington MA,"808 Massachusetts Ave, Arlington, MA 02476",42.4163681,-71.1594801613967
Fresh Pond,"200 Alewife Brook Pkwy, Cambridge, MA 02138",42.38996028975294,-71.1424798169153
Dedham,"300 Legacy Pl, Dedham, MA 02026",42.2324694,-71.1782252
Medford,"2151 Mystic Valley Pkwy, Medford, MA 02155",42.4179898367347,-71.12668938775509
Brighton,"15 Washington St, Brighton, MA 02135",42.34256835241537,-71.14059231737933
River Street,"340 River St, Cambridge, MA 02139",42.361005950000006,-71.11395056436744
Somerville,"45 Beacon St, Somerville, MA 02143",42.376602,-71.104263
Brookline,"1028 Beacon St, Brookline, MA 02446",42.3447702,-71.1122289
Prospect Street,"115 Prospect St, Cambridge, MA 02139",42.368075250000004,-71.1023438901504
Jamaica Plain,"413 Centre St, Jamaica Plain, MA 02130",42.321508800000004,-71.11090220594383
Melrose,"880 Main St, Melrose, MA 02176",42.4646585,-71.0625084
Symphony,"15 Westland Ave, Boston, MA 02115",42.343981400000004,-71.08741246200293
Charlestown,"27 Austin St, Charlestown, MA 02129",42.37496910753869,-71.06572937817356
Lynnfield,"427 Walnut St, Lynnfield, MA 01940",42.51917469103748,-71.03194521109326
Charles River Plaza,"181 Cambridge St, Boston, MA 02114",42.3620025,-71.0653418
South End,"348 Harrison Ave, Boston, MA 02118",42.3454666,-71.0628246
Swampscott,"331 Paradise Rd, Swampscott, MA 01907",42.479439,-70.905441
Beverly,"150 Brimbal Ave, Beverly, MA 01915",42.57663134210526,-70.88054194736843
South Weymouth,"35 Pleasant St, South Weymouth, MA 02190",42.17282336363636,-70.95363581818181
Hingham,"94 Derby St, Hingham, MA 02043",42.18004495693242,-70.90949752680598
Hyannis,"990 Iyannough Rd, Hyannis, MA 02601",41.6724258,-70.30183855
Kentlands,"316 Kentlands Blvd, Gaithersburg, MD 20878",39.1228646,-77.2375349
Bethesda,"5269 River Rd, Bethesda, MD 20816",38.965748591836736,-77.10489795918367
Silver Spring,"833 Wayne Ave, Silver Spring, MD 20910",38.99657515103064,-77.02278226041014
Riverdale Park,"6621-B Baltimore Ave, Riverdale, MD 20737",38.9637827,-76.9392017
Columbia - Maryland,"10275 Little Patuxent Pkwy, Columbia, MD 21044",39.2140438,-76.8556288
Mt. Washington,"1330 Smith Ave, Baltimore, MD 21209",39.3685947,-76.6499035977133
Harbor East,"711 S Central Ave, Baltimore, MD 21202",39.2826081,-76.5987091
Portland - Maine,"2 Somerset St, Portland, ME 04101",43.6634708,-70.25849073056867
East Lansing,"2750 E Grand River Ave, East Lansing, MI 48823",42.7306515,-84.4668792
Cranbrook,"990 W Eisenhower Pkwy, Ann Arbor, MI 48103",42.2483637,-83.758371
Ann Arbor,"3135 Washtenaw Ave, Ann Arbor, MI 48104",42.25810195,-83.69817423223958
Rochester Hills,"2918 Walton Blvd, Rochester Hills, MI 48309",42.682328850000005,-83.19170104550972
Birmingham,"2100 E Maple Rd, Birmingham, MI 48009",42.546701150000004,-83.1942356101698
Detroit,"115 Mack Ave, Detroit, MI 48201",42.3485249,-83.0565214262052
Minnetonka,"1001 Plymouth Rd, Minnetonka, MN 55305",44.973613,-93.446153
Maple Grove,"12201 Elm Creek Blvd N, Maple Grove, MN 55369",45.09398858646284,-93.43852647383912
Edina,"7401 France Ave S, Edina, MN 55435",44.8677687,-93.32810134392635
Uptown Minneapolis,"3060 Excelsior Blvd, Minneapolis, MN 55416",44.9477887,-93.322203
Hennepin,"222 Hennepin Ave, Minneapolis, MN 55401",44.983026699999996,-93.26959031640833
St Paul,"1575 Selby Ave, St. Paul, MN 55104",44.9465848,-93.1649182
Woodbury,"305 Radio Dr, Woodbury, MN 55125",44.908344,-92.9414426
Town and Country,"1160 Town and Country Crossing Dr, Town and Country, MO 63017",38.6222001,-90.51551374235659
Galleria,"1601 S Brentwood Blvd, St. Louis, MO 63144",38.62706635,-90.34788764999999
Central West End,"4577 W Pine Blvd, St. Louis, MO 63108",38.64125889409445,-90.25909604180471
Jackson,"4500 I-55 North, Jackson, MS 39211",32.3748823,-90.1480394
Asheville,"70 Merrimon Ave, Asheville, NC 28801",35.6019299,-82.55464502720176
South Asheville,"1856 Hendersonville Rd, Asheville, NC 28803",35.50034336540277,-82.52195797253934
Lake Norman,"9129 Sam Furr Rd, Huntersville, NC 28078",35.44277056484956,-80.87243921120684
Charlotte,"6610 Fairview Rd, Charlotte, NC 28210",35.148261591836736,-80.83064440816327
Winston-Salem,"41 Miller St, Winston-Salem, NC 27104",36.095351663532085,-80.27495244725849
Greensboro Friendly,"3202 W Friendly Ave, Greensboro, NC 27408",36.083899836734695,-79.83329940816327
Durham,"621 Broad St, Durham, NC 27705",36.0070992,-78.9205563
West Cary,"5055 Arco St, Cary, NC 27519",35.8335466,-78.8820131
Cary,"102B New Waverly Pl, Cary, NC 27518",35.7363213241303,-78.77916364417455
Raleigh,"3540 Wade Ave, Raleigh, NC 27607",35.80150665568169,-78.68602873894572
North Raleigh,"8710 Six Forks Rd, Raleigh, NC 27615",35.8994431,-78.65044047166998
Wilmington,"3804 Oleander Dr, Wilmington, NC 28403",34.21479832653061,-77.90122170408164
Lincoln,"6055 O St, Lincoln, NE 68510",40.8129007,-96.6391535930843
Omaha,"10020 Regency Cir, Omaha, NE 68114",41.262141549999996,-96.06859126158017
Bedford New Hampshire,"121 S River Rd, Bedford, NH 03110",42.9544899,-71.47633634190115
Nashua,"255 Amherst St, Nashua, NH 03063",42.77975575,-71.4964904686897
Bridgewater,"319 Chimney Rock Rd, Bound Brook, NJ 08805",40.5763288,-74.5625435525134
Morristown,"110 Washington St, Morristown, NJ 07960",40.79918365,-74.48885204999999
Parsippany,"60 Waterview Blvd, Parsippany, NJ 07054",40.87563386526475,-74.4270107253918
Rose City,"222 Main St, Madison, NJ 07940",40.753635,-74.4057684
Metuchen,"645 Middlesex Ave, Metuchen, NJ 08840",40.5406319,-74.36674810000001
Wayne,"560 Valley Rd, Wayne, NJ 07470",40.9308513,-74.2265965
West Orange,"235 Prospect Ave, West Orange, NJ 07052",40.8063506,-74.2486954
Montclair,"701 Bloomfield Ave, Montclair, NJ 07042",40.8184896,-74.2231964
Ridgewood,"44 Godwin Ave, Ridgewood, NJ 07450",40.97840385000001,-74.12251444823869
Newark,"633 Broad St, Newark, NJ 07102",40.74156292307692,-74.16888332051282
Weehawken,"1400 Waterfront Terrace, Weehawken, NJ 07086",40.7614148,-74.0225202
Closter,"45 Vervalen St, Closter, NJ 07624",40.97066294891257,-73.95861927896351
Edgewater,"905 River Rd, Edgewater, NJ 07020",40.825796309272874,-73.9740330760169
Spring Lake Wall,"1933 NJ-35, Wall, NJ 07719",40.15771132593026,-74.05337471595621
Indian School Plaza,"2103 Carlisle Blvd NE, Albuquerque, NM 87110",35.1026345,-106.6050568
Academy,"5815 Wyoming Blvd NE, Albuquerque, NM 87109",35.1506888,-106.5593471
Santa Fe (Cerrillos),"753 Cerrillos Rd, Santa Fe, NM 87505",35.67911505,-105.95013700404576
Reno,"6139 S Virginia St, Reno, NV 89502",39.468918,-119.787229
Fort Apache,"8855 W Charleston Blvd, Las Vegas, NV 89117",36.15770035,-115.28828659999999
Tenaya," 7250 W Lake Mead Blvd, Las Vegas, NV 89128",36.196183,-115.2579913
Henderson,"100 S Green Valley Pkwy, Henderson, NV 89012",36.01932566708749,-115.08328045056419
Tribeca,"270 Greenwich St, New York, NY 10007",40.7156112,-74.0117376
Union Square,"4 Union Square S, New York, NY 10003",43.0095952654818,-78.19442475196327
Midtown East (E 57th St),"226 E 57th St, New York, NY 10022",40.7594206,-73.9660348
Harlem,"100 W 125th St, New York, NY 10027",40.8077449,-73.9459069
Buffalo,"3139 Sheridan Dr, Amherst, NY 14226",42.9789758,-78.81690959615005
Albany,"1425 Central Ave, Albany, NY 12205",42.709012,-73.8184373
Industry City,"167 41st St, Brooklyn, NY 11232",40.6544264,-74.0119737
Third and 3rd (Brooklyn),"214 3rd St , Brooklyn, NY 11215",40.674874599999995,-73.98878260316653
Fort Greene,"292 Ashland Pl, Brooklyn, NY 11217",40.68612545,-73.9786425926385
Williamsburg,"238 Bedford Ave, Brooklyn, NY 11249",40.7161301,-73.959759
Yonkers,"1 Ridge Hill Blvd, Yonkers, NY 10710",40.9536581,-73.8555962
Chappaqua,"480 N Bedford Rd, Chappaqua, NY 10514",41.165095,-73.760343
White Plains,"110 Bloomingdale Rd, White Plains, NY 10605",41.0282378,-73.7586059
Port Chester,"575 Boston Post Road, Port Chester, NY 10573",40.9926359,-73.6754658
Manhasset,"2101 Northern Blvd, Manhasset, NY 11030",40.7971346,-73.6707206
Jericho,"429 North Broadway, Jericho, NY 11753-2106",40.7889089,-73.5346143
Lake Grove,"120 New Moriches Rd, Lake Grove, NY 11755",40.8694882,-73.1260293
Toledo,"3420 Secor Rd, Toledo, OH 43606",41.6829852,-83.6215875
Columbus,"3670 W Dublin-Granville Rd, Columbus, OH 43235",40.0983016,-83.0867522
Upper Arlington,"1555 W Lane Ave, Upper Arlington, OH 43221",40.00701,-83.051869
Easton,"4100 Easton Gateway Dr, Columbus, OH 43219",40.0570086,-82.90956802186226
Rocky River,"19607 Detroit Rd, Rocky River, OH 44116",41.47998804654318,-81.83959789609332
Cedar Center,"13998 Cedar Rd, University Heights, OH 44118",41.5008546,-81.5368799
Akron,"1745 W Market St, Akron, OH 44313",41.110598854384165,-81.57172806144132
Oklahoma City,"6001 North Western Ave, Oklahoma City, OK 73118",35.5318583,-97.5297967
Brookside,"1401 E 41st St, Tulsa, OK 74105",36.104377,-95.973434
Yale,"9136 S Yale Ave, Tulsa, OK 74137",36.0306116,-95.92369859975105
Bend,"2610 NE Hwy 20, Bend, OR 97701",44.0595496,-121.2885778
Eugene,"353 E Broadway, Eugene, OR 97401",44.0503814,-123.08773676230663
Bridgeport,"7380 SW Bridgeport Rd, Tigard, OR 97224",45.394406000000004,-122.75156192992772
Lake Oswego,"11 S State St, Lake Oswego, OR 97034",45.415840849999995,-122.66202202057269
Greenway,"12220 SW Scholls Ferry Rd, Tigard, OR 97223",45.4425512,-122.801852772275
Laurelhurst,"2825 East Burnside St, Portland, OR 97214",45.5232631,-122.63678595230135
Pearl District Portland,"1210 NW Couch St, Portland, OR 97209",45.5234078,-122.6835294
Hollywood,"4301 NE Sandy Blvd, Portland, OR 97213",45.536695,-122.618836
Tanasbourne,"9940 NE Cornell Rd, Hillsboro, OR 97124",45.5320146,-122.9511342
Fremont - Oregon,"3535 NE 15th Ave, Portland, OR 97212",45.5490219,-122.65140431581528
Wexford,"10576 Perry Hwy, Wexford, PA 15090",40.616855802465054,-80.05542496507182
South Hills,"111 Siena Dr, Upper St. Clair, PA 15241",40.346202149999996,-80.05801284502444
Pittsburgh,"5880 Centre Ave, Pittsburgh, PA 15206",40.4584598,-79.92898534233149
Lancaster,"1563 Fruitville Pike, Lancaster, PA 17601",40.064613,-76.314531
Exton,"175 N Pottstown Pike, Exton, PA 19341",40.016681,-75.620758
Newtown,"3737 West Chester Pike, Newtown Square, PA 19073",39.98817235,-75.40379524100837
Spring House,"1111 N Bethlehem Pike, Spring House, PA 19477",40.18487927275861,-75.22788887352473
Wynnewood,"15 E Wynnewood Rd, Wynnewood, PA 19096",40.0020794,-75.27551530249195
Philly Center City,"2101 Pennsylvania Ave, Philadelphia, PA 19130",39.9630215,-75.1742544
South Street,"929 South St, Philadelphia, PA 19147",39.9416083,-75.1491042
Garden City Center,"151 Sockanosset Cross Rd, Cranston, RI 02920",41.755909349999996,-71.45605053835143
University,"601 N Main St, Providence, RI 02904",41.874403,-71.393106
Providence,"261 Waterman St, Providence, RI 02906",41.8278073,-71.3861781
Greenville,"1140 Woodruff Rd, Greenville, SC 29607",34.8253857,-82.3001979
Hilton Head Island,"50 Shelter Cove Ln, Hilton Head Island, SC 29928",32.187662,-80.71663569343531
West Ashley,"1125 Savannah Hwy, Charleston, SC 29407",32.783687,-79.995718
Charleston,"923 Houston Northcutt Blvd, Mount Pleasant, SC 29464",32.80414637860952,-79.89077398478649
Poplar Avenue,"5014 Poplar Ave, Memphis, TN 38117",35.1127205376534,-89.89496933450118
Green Hills,"4021 Hillsboro Pike, Nashville, TN 37215",36.10320702438599,-86.81639838734696
Nashville Downtown,"1202 Broadway, Nashville, TN 37203",36.156589737593464,-86.78769924033539
McEwen,"1566 W McEwen Dr, Franklin, TN 37067",35.93559318671901,-86.82471984089312
Chattanooga,"301 Manufacturers Rd, Chattanooga, TN 37405",35.0633944,-85.314337
Knoxville,"6730 Papermill Dr NW, Knoxville, TN 37919",35.93375484101352,-84.01631924667991
El Paso,"100 Pitt St, El Paso, TX 79912",31.83410525,-106.54801152160059
Highland Village,"4041 Waller Creek, Highland Village, TX 75077",33.072753250000005,-97.08469813757709
Parkway,"801 E Lamar, Arlington, TX 76011",32.765642,-97.099149
Las Colinas,"6741 N MacArthur Blvd, Irving, TX 75039",32.9011726,-96.96025912428725
Plano,"2201 Preston Rd, Plano, TX 75093",33.0300837,-96.7967009
Addison,"5100 Belt Line Rd, Ste 1012, Addison, TX 75254",32.9532249,-96.821186
Vineyard,"18403 Blanco Rd, San Antonio, TX 78258",29.6132318,-98.51112126877197
Highland Park,"4100 Lomo Alto Dr, Highland Park, TX 75219",32.82047195,-96.81440623602839
Uptown Dallas,"2510 McKinney Ave, Dallas, TX 75201",32.79542573469388,-96.8019200612245
Fairview,"105 Stacy Rd, Fairview, TX 75069",33.1298707,-96.6534845
Cityline,"1411 E Renner Rd, Richardson, TX 75082",32.998832300000004,-96.6987198355102
Lakewood,"2118 Abrams Rd, Dallas, TX 75214",32.815940350000005,-96.75223175473414
Bee Cave,"12601 Hill Country Blvd, Bee Cave, TX 78738",30.30887101904013,-97.93987105149681
Domain,"11920 Domain Dr, Austin, TX 78758",30.406407899999998,-97.72015882175573
Lamar,"525 N Lamar Blvd, Austin, TX 78703",30.27057,-97.754054
Champions,"10133 Louetta Rd, Houston, TX 77070",29.9965648,-95.5841942
Westchase,"11041 Westheimer Rd, Houston, TX 77042",29.7377917,-95.57011274261032
Sugar Land,"15900 Southwest Fwy, Sugar Land, TX 77478",29.619004,-95.604278
Voss,"1407 S Voss Rd, Houston, TX 77057",29.752011,-95.501015
Independence Heights,"101 N Loop W, Houston, TX 77018",29.813396,-95.399271
Bellaire,"4004 Bellaire Blvd, Houston, TX 77025",29.7053178,-95.4961854
Kirby,"2955 Kirby Dr, Houston, TX 77098",29.73947815,-95.41816502714921
Montrose,"701 Waugh Dr, Houston, TX 77019",29.759439,-95.398054
Midtown Houston,"515 Elgin St, Houston, TX 77006",29.7440185,-95.3805488
Trolley Square,"544 S 700 E, Salt Lake City, UT 84102",40.757424666666665,-111.870951
Virginia Beach,"1800 Laskin Rd, Virginia Beach, VA 23454",36.85094225,-76.02808561990476
Charlottesville,"1797 Hydraulic Rd, Charlottesville, VA 22901",38.0596121,-78.4892681744862
Fair Lakes,"4501 Market Commons Dr, Fairfax, VA 22033",38.8583294,-77.377331
Reston,"11660 Plaza America Dr, Reston, VA 20190",38.95198205399297,-77.34746331684448
Vienna,"143 Maple Ave E, Vienna, VA 22180",38.90234845,-77.26288980903688
Springfield,"8402 Old Keene Mill Rd, Springfield, VA 22152",38.77923298229276,-77.23357443208243
Arlington VA,"2700 Wilson Blvd, Arlington, VA 22201",38.88914535,-77.09111150505868
Richmond VA,"2024 W Broad St, Richmond, VA 23220",37.55779555,-77.46131416851017
Old Town,"1700 Duke St, Alexandria, VA 22314",38.803885050000005,-77.05988718728607
Foggy Bottom,"2201 I Street NW, Washington, DC 20037",38.90100025,-77.04913469050035
P Street,"1440 P Street NW, Washington, DC 20005",38.9094423,-77.0335553
South Capitol Hill,"101 H St SE, Washington, DC 20003",38.880291,-76.9817
H Street,"600 H St NE, Washington, DC 20002",38.9003882,-76.998128
Chambers Bay,"3515 Bridgeport Way W, University Place, WA 98466",47.22739528571428,-122.53692014285714
Madison Broadway,"1001 Broadway, Seattle, WA 98122",47.6113428,-122.3210619
Bellevue,"888 116th Ave NE, Bellevue, WA 98004",47.6182149,-122.1845924438901
Westlake,"2210 Westlake Ave, Seattle, WA 98121",47.6181163877551,-122.33829191836735
Interbay,"2001 15th Ave W, Seattle, WA 98119",47.6369803,-122.3769082
Roosevelt Square,"1026 NE 64th St, Seattle, WA 98115",47.6751186,-122.3158949
Kirkland,"12501 120th Ave NE, Kirkland, WA 98034",47.7115843,-122.1800732
Bellingham Lakeway,"1030 Lakeway Dr, Bellingham, WA 98229",48.74358825,-122.46140781383369
Madison,"3313 University Ave, Madison, WI 53705",43.07513768087871,-89.44419354009811
Wauwatosa,"11100 W Burleigh St, Wauwatosa, WI 53222",43.076271500000004,-88.05176357413683
Milwaukee,"2305 N Prospect Ave, Milwaukee, WI 53211",43.0603901,-87.8839
Jackson Wyoming,"1155 S Highway 89, Jackson, WY 83001",43.472804,-110.7900312
